{"type": "FeatureCollection", "features": [{"type": "Feature", "properties": {"name": "Boston", "osm_id": 396497}, "geometry": {"type": "MultiPolygon", "coordinates": [[[[-119.9044161, 38.9334164], [-119.9005524, 38.9307726]], [[-119.9005524, 38.9307726], [-119.8962471, 38.9278265], [-119.8926144, 38.9253406], [-119.8760129, 38.9139787], [-119.8760131, 38.9139426], [-119.8622622, 38.9044202], [-119.8605611, 38.9032502], [-119.8577678, 38.901329], [-119.8516688, 38.897134], [-119.8499183, 38.8959299], [-119.8458341, 38.8931431], [-119.8438417, 38.8917835], [-119.8302412, 38.8823904], [-119.8288589, 38.8814357], [-119.8253944, 38.8790479]], [[-119.8253944, 38.8790479], [-119.8208375, 38.875907]], [[-119.8208375, 38.875907], [-119.8206365, 38.8757685], [-119.8201792, 38.8754533], [-119.8198565, 38.8752309], [-119.8195715, 38.8750357], [-119.8189772, 38.8746248], [-119.8184697, 38.874275], [-119.8178993, 38.8738818], [-119.8160828, 38.8726297], [-119.8147316, 38.8716983], [-119.8143276, 38.8714198], [-119.813166, 38.8706192], [-119.8115006, 38.8694711], [-119.8078908, 38.8669827], [-119.8068407, 38.8662589], [-119.7972246, 38.8596296], [-119.7928779, 38.8566328], [-119.7920837, 38.8560856], [-119.7910601, 38.8553795], [-119.7908769, 38.8552532], [-119.7870215, 38.852595], [-119.7868002, 38.8524424], [-119.764632, 38.8371596], [-119.751421, 38.8280504]], [[-119.751421, 38.8280504], [-119.7510096, 38.8277667], [-119.728835, 38.8125417]], [[-119.728835, 38.8125417], [-119.7250361, 38.8099331], [-119.7237172, 38.8090223]], [[-119.7237172, 38.8090223], [-119.7142808, 38.8025051]], [[-119.7142808, 38.8025051], [-119.7131623, 38.8017327]], [[-119.7131623, 38.8017327], [-119.7095837, 38.7992609]], [[-119.7095837, 38.7992609], [-119.7029764, 38.7946971], [-119.697676, 38.7910358]], [[-119.697676, 38.7910358], [-119.6910493, 38.7864581]], [[-119.6910493, 38.7864581], [-119.681822, 38.7800387]], [[-119.681822, 38.7800387], [-119.67726, 38.7769314]], [[-119.67726, 38.7769314], [-119.6688636, 38.77113]], [[-119.6688636, 38.77113], [-119.6654414, 38.7687653], [-119.6648402, 38.7683434]], [[-119.6648402, 38.7683434], [-119.6607864, 38.7655375]], [[-119.6607864, 38.7655375], [-119.6532591, 38.7603177]], [[-119.6532591, 38.7603177], [-119.6353705, 38.7479015]], [[-119.6353705, 38.7479015], [-119.634859, 38.747545]], [[-119.634859, 38.747545], [-119.6304639, 38.7444812]], [[-119.6304639, 38.7444812], [-119.6260044, 38.7413724]], [[-119.6260044, 38.7413724], [-119.6194019, 38.7368278]], [[-119.6194019, 38.7368278], [-119.6072405, 38.7284562]], [[-119.6072405, 38.7284562], [-119.5982515, 38.7222312]], [[-119.5982515, 38.7222312], [-119.5931435, 38.7186935]], [[-119.5931435, 38.7186935], [-119.588018, 38.7151441]], [[-119.588018, 38.7151441], [-119.5866545, 38.7141993]], [[-119.5866545, 38.7141993], [-119.5865155, 38.713979], [-119.5859597, 38.7132916], [-119.5856125, 38.7129165], [-119.5852221, 38.7123467], [-119.5850481, 38.7121841], [-119.5847447, 38.7118103], [-119.5845104, 38.7113755], [-119.584015, 38.7107619], [-119.5835029, 38.7099272], [-119.5831818, 38.7096386], [-119.5829562, 38.7095329], [-119.5824353, 38.7091843], [-119.5822876, 38.7090404], [-119.5820792, 38.7086334], [-119.582019, 38.7084515], [-119.5818541, 38.7082305], [-119.5813506, 38.7078058], [-119.5807427, 38.7074593], [-119.5805514, 38.7072824], [-119.5797529, 38.7066826], [-119.5795796, 38.7065199], [-119.5793707, 38.7063967], [-119.5788675, 38.705963], [-119.5787546, 38.7058155], [-119.5787289, 38.7056617], [-119.5788937, 38.7054774], [-119.5793276, 38.7052514], [-119.5795013, 38.7051798], [-119.579736, 38.7050201], [-119.5801353, 38.7047976], [-119.5804042, 38.7046748], [-119.5806127, 38.7045503], [-119.5808466, 38.7043184], [-119.5810724, 38.7041493], [-119.5818281, 38.70364], [-119.5821145, 38.7034052], [-119.5827306, 38.7028692], [-119.5828345, 38.7027416], [-119.5831383, 38.702201], [-119.5832599, 38.7020153], [-119.5840411, 38.7010924], [-119.5843278, 38.7006998], [-119.584762, 38.7003611], [-119.5852742, 38.7000023], [-119.5856999, 38.6997535], [-119.5861854, 38.6994119], [-119.5863851, 38.6992465], [-119.5866888, 38.6989176], [-119.5868017, 38.6987318], [-119.5869235, 38.6983028], [-119.5869496, 38.6980874], [-119.5869495, 38.6979253], [-119.5869235, 38.6977308], [-119.5864981, 38.6969752], [-119.5862204, 38.6966834], [-119.5860036, 38.6965284], [-119.5858559, 38.6963709], [-119.5857081, 38.6960784], [-119.5856994, 38.6959294], [-119.5857603, 38.6957556], [-119.585847, 38.695623], [-119.5860643, 38.6954807], [-119.5863852, 38.6952288], [-119.5865154, 38.6950569], [-119.5866023, 38.6948793], [-119.5866371, 38.6947362], [-119.5869493, 38.6942904], [-119.5871323, 38.6941291], [-119.5875482, 38.6939476], [-119.587904, 38.6937328], [-119.5881733, 38.6935065], [-119.5885205, 38.6932643], [-119.58866, 38.6931242], [-119.5889373, 38.6928982], [-119.5891892, 38.6926623], [-119.5893801, 38.6925147], [-119.5895716, 38.6923402], [-119.5897012, 38.6922584], [-119.5898923, 38.6920162], [-119.5902827, 38.6917213], [-119.5906561, 38.6913628], [-119.5908731, 38.69118], [-119.5914026, 38.6906055], [-119.5917761, 38.6901073], [-119.5919234, 38.6898189], [-119.5920279, 38.6894661], [-119.5920624, 38.6890887], [-119.5920455, 38.6888089], [-119.5920019, 38.6885915], [-119.5919239, 38.688283], [-119.5917331, 38.687809], [-119.5914894, 38.6875091], [-119.5910643, 38.6870372], [-119.5909861, 38.6868547], [-119.5909425, 38.6866688], [-119.5909427, 38.6865427], [-119.591047, 38.6860548], [-119.5910989, 38.6854798], [-119.5912724, 38.685138], [-119.5913856, 38.6850242], [-119.5914984, 38.6848699], [-119.591585, 38.6847103], [-119.5916458, 38.6845364], [-119.5916982, 38.6842046], [-119.5917154, 38.6839618], [-119.5916197, 38.6835717], [-119.5915507, 38.6829842], [-119.5915676, 38.6828405], [-119.5915332, 38.6823981], [-119.5914981, 38.6821854], [-119.5914898, 38.6819689], [-119.5915068, 38.6818523], [-119.5915765, 38.6817463], [-119.5918282, 38.6815419], [-119.5919847, 38.6814834], [-119.5923753, 38.6812921], [-119.5928092, 38.6810481], [-119.5929398, 38.6809302], [-119.5930605, 38.6807761], [-119.5931217, 38.6806833], [-119.5932608, 38.6802369], [-119.5932868, 38.6798684], [-119.5934601, 38.6793059], [-119.5937551, 38.6789633], [-119.5939378, 38.6788199], [-119.594311, 38.6786596], [-119.5947272, 38.6784555], [-119.5949619, 38.6783858], [-119.5952309, 38.678254], [-119.5955002, 38.6781672], [-119.5956828, 38.678087], [-119.5958305, 38.6780012], [-119.5960643, 38.6778279], [-119.5961863, 38.6775251], [-119.5962033, 38.6773499], [-119.5960647, 38.6768189], [-119.5960038, 38.6766505], [-119.59596, 38.6763608], [-119.5959606, 38.6761673], [-119.5960037, 38.6760469], [-119.5961428, 38.6757492], [-119.5962731, 38.6756358], [-119.5963862, 38.6755085], [-119.5965415, 38.6753824], [-119.5967068, 38.6752747], [-119.5969322, 38.6752001], [-119.5973321, 38.674964], [-119.5974622, 38.6748553], [-119.5976701, 38.6745144], [-119.5977401, 38.6743274], [-119.5977834, 38.6740043], [-119.5978702, 38.6725204], [-119.5980174, 38.6720517], [-119.59833, 38.6714574], [-119.5984953, 38.6712414], [-119.5988251, 38.6706475], [-119.5993197, 38.6701078], [-119.5995885, 38.669904], [-119.5999365, 38.6696844], [-119.6002139, 38.6695439], [-119.6007868, 38.6693668], [-119.6010477, 38.6693654], [-119.60129, 38.6693409], [-119.6018546, 38.669551], [-119.6020457, 38.6695971], [-119.6021849, 38.6696597], [-119.6023755, 38.6696383], [-119.6025488, 38.6696478], [-119.6027747, 38.6695643], [-119.6029481, 38.6694656], [-119.6032526, 38.6691638], [-119.6035563, 38.6687718], [-119.6036948, 38.6685596], [-119.6040683, 38.668165], [-119.6045197, 38.6679305], [-119.604806, 38.6678577], [-119.6050928, 38.667749], [-119.6053444, 38.6676211], [-119.6056481, 38.6674993], [-119.6058655, 38.6673524], [-119.606464, 38.6668292], [-119.606586, 38.6666482], [-119.6070112, 38.6661155], [-119.6074105, 38.6658118], [-119.6076706, 38.6657022], [-119.6079224, 38.6656465], [-119.6085734, 38.6655797], [-119.6088083, 38.6655326], [-119.609103, 38.665451], [-119.609338, 38.665449], [-119.6095548, 38.6654191], [-119.6101711, 38.6655226], [-119.610857, 38.66552], [-119.6111256, 38.6655368], [-119.6115946, 38.6655188], [-119.6124975, 38.6656216], [-119.6127403, 38.6656647], [-119.6132009, 38.6658267], [-119.6133916, 38.6659719], [-119.6136083, 38.6660683], [-119.6139038, 38.6661669], [-119.6142425, 38.6660956], [-119.6144683, 38.6659354], [-119.6145115, 38.6658106], [-119.6144769, 38.6656791], [-119.61426, 38.665479], [-119.6138168, 38.6648896], [-119.613305, 38.664109], [-119.6130966, 38.6636391], [-119.6129319, 38.6631884]], [[-119.6129319, 38.6631884], [-119.6128618, 38.662709], [-119.6128884, 38.6621918], [-119.6128533, 38.661461], [-119.6128706, 38.6612453], [-119.6130271, 38.6605157], [-119.6131748, 38.660065], [-119.6132872, 38.6598431], [-119.6133741, 38.6595529], [-119.6134353, 38.6591538], [-119.6133398, 38.658759], [-119.6132615, 38.6585902], [-119.6128796, 38.65798], [-119.6126102, 38.6574318], [-119.6124017, 38.6568311], [-119.6123932, 38.6566913], [-119.612471, 38.6564413], [-119.6126627, 38.6562306], [-119.6128792, 38.6559486], [-119.6129665, 38.6557394], [-119.6130006, 38.6550918], [-119.6130881, 38.6541214], [-119.6131486, 38.6539205], [-119.6132354, 38.6537248], [-119.6133653, 38.6535574], [-119.6136263, 38.6531235], [-119.6137734, 38.6527134], [-119.6138692, 38.6523873], [-119.6139124, 38.6521725], [-119.6139476, 38.6519302], [-119.6139559, 38.6516153], [-119.6139386, 38.6511598], [-119.6139037, 38.6509562], [-119.6136698, 38.6502377], [-119.613687, 38.6500985], [-119.6139123, 38.6499068], [-119.614234, 38.6497675], [-119.6145462, 38.6496639], [-119.6151102, 38.6493965], [-119.6153362, 38.64934], [-119.6156661, 38.6491469], [-119.6157359, 38.6490679], [-119.6158742, 38.6488017], [-119.6159958, 38.6481251], [-119.6160917, 38.6477808], [-119.6161259, 38.6475253], [-119.6161348, 38.6469264], [-119.6160914, 38.6463846], [-119.6161261, 38.646318], [-119.6161263, 38.6462234], [-119.6160045, 38.6460802], [-119.6160911, 38.6456594], [-119.616135, 38.6455346], [-119.616256, 38.6453129], [-119.6168206, 38.6449238], [-119.6168897, 38.6447997], [-119.6169071, 38.6447057], [-119.6168987, 38.6445613], [-119.6166908, 38.6441904], [-119.6166294, 38.6439995], [-119.616595, 38.6438318], [-119.6165685, 38.6435247], [-119.6165078, 38.6433203], [-119.6163781, 38.6431184], [-119.6163174, 38.6429725], [-119.616135, 38.6423635], [-119.6161091, 38.6419394]], [[-119.6161091, 38.6419394], [-119.6161265, 38.6418589], [-119.6161175, 38.6416559], [-119.616005, 38.6409184], [-119.6156312, 38.6400743], [-119.6155359, 38.6397203], [-119.6154316, 38.6394965], [-119.6152581, 38.6391717], [-119.6148676, 38.638728], [-119.6147374, 38.6383999], [-119.61472, 38.6380075], [-119.6149113, 38.6369951], [-119.6150064, 38.6367592], [-119.6152666, 38.6363838], [-119.6153102, 38.6362815], [-119.6153533, 38.6360531], [-119.615319, 38.6356692], [-119.6152233, 38.6350809], [-119.6151797, 38.6346472], [-119.6151454, 38.634493], [-119.6151451, 38.6342859], [-119.615171, 38.6341154], [-119.6152927, 38.6337901], [-119.615371, 38.6336348], [-119.6155966, 38.6334927], [-119.6158225, 38.6334046], [-119.6166211, 38.6329863], [-119.616968, 38.6328297], [-119.61748, 38.6326554], [-119.6177496, 38.6325866], [-119.6180533, 38.6324512], [-119.6181576, 38.6323687], [-119.6182704, 38.6322279], [-119.6183052, 38.6320532], [-119.6183486, 38.6319869], [-119.6183135, 38.6318012], [-119.6181577, 38.631603], [-119.6179146, 38.6314609], [-119.6177752, 38.6314027], [-119.6175414, 38.6313375], [-119.6173501, 38.6312553], [-119.6171768, 38.6312143], [-119.6169947, 38.6310739], [-119.6166641, 38.630686], [-119.6164647, 38.6303784], [-119.6163259, 38.6301221], [-119.6162566, 38.6299174], [-119.6161694, 38.6293925], [-119.6161521, 38.6291487], [-119.6162217, 38.6287543], [-119.6162563, 38.6286743], [-119.6166993, 38.6279709], [-119.6169162, 38.6275717], [-119.6169598, 38.6272712], [-119.6168904, 38.627035], [-119.6166468, 38.6266901], [-119.616569, 38.6266068], [-119.6164907, 38.6264379], [-119.6163871, 38.6259439], [-119.6165432, 38.6256917], [-119.6167598, 38.6255268], [-119.6177065, 38.6252524], [-119.6178972, 38.6251813], [-119.6181491, 38.625058], [-119.6183481, 38.6249917], [-119.6184877, 38.6249102], [-119.6188348, 38.6245193], [-119.6191297, 38.6243072], [-119.6193901, 38.624094], [-119.6195637, 38.6239278], [-119.61972, 38.6236756], [-119.6198069, 38.6233358], [-119.6198073, 38.6231467], [-119.6197549, 38.622902], [-119.6196508, 38.6227188], [-119.6189561, 38.6218158], [-119.6187132, 38.6214259], [-119.6186089, 38.6210806], [-119.6182617, 38.6202372], [-119.6182097, 38.6200466], [-119.6182096, 38.6197447], [-119.6182267, 38.6196238], [-119.6183139, 38.6194641], [-119.6184873, 38.619334], [-119.6187829, 38.6191983], [-119.6188697, 38.6190748], [-119.6191298, 38.6181095], [-119.6191996, 38.6179357], [-119.6194593, 38.6174793], [-119.619616, 38.6171235], [-119.6200155, 38.616], [-119.6201021, 38.6158043], [-119.6202064, 38.6149605], [-119.6202756, 38.6148454], [-119.6204321, 38.6146924], [-119.6205358, 38.6146233], [-119.6206924, 38.6144205], [-119.6207965, 38.613856], [-119.6209528, 38.6135542], [-119.6210227, 38.6133355], [-119.6210394, 38.6131467], [-119.6210052, 38.612835], [-119.6209706, 38.6126854], [-119.6209179, 38.6124947], [-119.6207448, 38.6120528], [-119.620675, 38.6119201], [-119.6202584, 38.6113946], [-119.6201365, 38.6111929], [-119.6200503, 38.6109652], [-119.6199459, 38.6105342], [-119.6199459, 38.6103181], [-119.6199108, 38.6100558], [-119.6198414, 38.609761], [-119.6196506, 38.6092556], [-119.6194426, 38.6084928], [-119.6193902, 38.6083562], [-119.6190778, 38.6079462], [-119.6190083, 38.6078091], [-119.6188872, 38.6075623], [-119.6187308, 38.607148], [-119.6186787, 38.6069573], [-119.618609, 38.6065499], [-119.6185223, 38.6062096], [-119.6185051, 38.6057677], [-119.6187826, 38.6053433], [-119.6191297, 38.6047363], [-119.6191646, 38.6044985], [-119.6191303, 38.6043264], [-119.6189734, 38.6041371], [-119.6188004, 38.603988], [-119.6181232, 38.603527], [-119.6174455, 38.6031966], [-119.6168204, 38.6030164], [-119.6162652, 38.6029102], [-119.6152409, 38.6026419], [-119.6146159, 38.6023399], [-119.6143729, 38.6021212], [-119.6136787, 38.6013219], [-119.6134181, 38.6010621], [-119.6129492, 38.6006297], [-119.6126889, 38.6004284], [-119.6124456, 38.6001871], [-119.6117164, 38.5995804], [-119.6111955, 38.5991869], [-119.6110394, 38.5989978], [-119.6109008, 38.5987866], [-119.6103968, 38.5975738], [-119.6101887, 38.5971309], [-119.6099979, 38.5968866], [-119.6097893, 38.5965652], [-119.6094419, 38.5958976], [-119.6091296, 38.5954922], [-119.608904, 38.5952558], [-119.6086957, 38.5951237], [-119.608435, 38.5950216], [-119.6076019, 38.5947541], [-119.6071334, 38.594646], [-119.6068029, 38.5945958], [-119.6064034, 38.5945618], [-119.6059522, 38.5945621], [-119.6050841, 38.5946991], [-119.6048929, 38.5946755], [-119.6037124, 38.5942584], [-119.602515, 38.5939984], [-119.6016116, 38.5938505], [-119.6011955, 38.5937438], [-119.6008132, 38.5937282], [-119.6004143, 38.593667], [-119.5993897, 38.5934256], [-119.5990774, 38.5932948], [-119.5987995, 38.5931471], [-119.5985733, 38.5930009], [-119.598105, 38.592618], [-119.5977573, 38.5921574], [-119.5975319, 38.5917049], [-119.597254, 38.5912554], [-119.5970455, 38.5910377], [-119.5968379, 38.5909235], [-119.5966289, 38.5908364], [-119.5961432, 38.5906555], [-119.5958997, 38.5905854], [-119.5957611, 38.5904823], [-119.5955003, 38.5901278], [-119.5953619, 38.589822], [-119.5952923, 38.5895948], [-119.5951014, 38.5891433], [-119.5948928, 38.5885472], [-119.5948065, 38.5878691], [-119.5948059, 38.5875311], [-119.5948585, 38.5870282], [-119.5948234, 38.586239], [-119.5948754, 38.5857], [-119.5950492, 38.585133], [-119.5952577, 38.5846391], [-119.5954311, 38.5841712], [-119.5956397, 38.5837044], [-119.5957263, 38.5834502], [-119.595744, 38.5832435], [-119.5959347, 38.5826094], [-119.595952, 38.5823036], [-119.5959003, 38.5820634], [-119.5956394, 38.5817405], [-119.5953267, 38.5814206], [-119.5952053, 38.5812099], [-119.5949971, 38.5809245], [-119.5948927, 38.5808135], [-119.5945285, 38.5805685], [-119.5940074, 38.5803327], [-119.5937294, 38.580248], [-119.5934694, 38.5801188], [-119.592671, 38.5796226], [-119.5922715, 38.5791965], [-119.5920978, 38.5789708], [-119.5919417, 38.5787095], [-119.5918547, 38.5786079], [-119.5916985, 38.5781664], [-119.5916464, 38.5779306], [-119.5915945, 38.5773751], [-119.5910696, 38.576825], [-119.5910225, 38.5765453]], [[-119.5910225, 38.5765453], [-119.5909167, 38.5759275], [-119.5905352, 38.5753443], [-119.5903965, 38.5751692], [-119.5902227, 38.5750065], [-119.5900314, 38.5747892], [-119.5896673, 38.5744678], [-119.5894934, 38.5742916], [-119.5892502, 38.5740051], [-119.5891814, 38.5737644], [-119.589164, 38.5734937], [-119.5893549, 38.5728236], [-119.5895633, 38.5722711], [-119.5897191, 38.5717216], [-119.5898583, 38.5710366], [-119.5899273, 38.5705521], [-119.589893, 38.5701863], [-119.5898234, 38.5700041], [-119.5896495, 38.5691612], [-119.589563, 38.5688839], [-119.5894413, 38.5682589], [-119.5893718, 38.5675902], [-119.5893023, 38.5673765], [-119.5892506, 38.5673029], [-119.589164, 38.5672689], [-119.5890768, 38.5672618], [-119.5887994, 38.5673212], [-119.5878791, 38.567416], [-119.5877571, 38.5674169], [-119.5876183, 38.5673814], [-119.5875146, 38.5673153], [-119.5872364, 38.5670864], [-119.5870457, 38.5668872], [-119.5869236, 38.566708], [-119.5866637, 38.5662455], [-119.5865424, 38.5659762], [-119.586386, 38.5654311], [-119.586247, 38.5647784], [-119.5862469, 38.5644946], [-119.5862122, 38.5641964], [-119.5862122, 38.5634847], [-119.5863507, 38.5629662], [-119.5866981, 38.561463], [-119.5867855, 38.560889], [-119.5869067, 38.560406], [-119.5869417, 38.5601954], [-119.5869933, 38.5600303], [-119.5871322, 38.559746], [-119.5871671, 38.5595713], [-119.5871671, 38.5592831], [-119.5870979, 38.5591099], [-119.5869242, 38.5588841], [-119.586125, 38.5583923], [-119.5860043, 38.5581727], [-119.5857955, 38.5575989], [-119.5854828, 38.5569503], [-119.5848752, 38.5558649], [-119.5847364, 38.5555591], [-119.5845457, 38.5550581], [-119.5844934, 38.5548133], [-119.5844237, 38.5543024], [-119.5843546, 38.5540662], [-119.5839379, 38.552964], [-119.5838335, 38.5526096], [-119.5838159, 38.5524964], [-119.5836772, 38.552096], [-119.5836256, 38.5520359], [-119.5835386, 38.5518442], [-119.5833824, 38.5515829], [-119.5831567, 38.5513691], [-119.582896, 38.5511949], [-119.5826183, 38.5510651], [-119.5823236, 38.5509754], [-119.5820804, 38.5509323], [-119.5817331, 38.550787], [-119.5813685, 38.5504476], [-119.5812469, 38.5502142], [-119.5806043, 38.5492496], [-119.5802743, 38.5489382], [-119.5800487, 38.5487649], [-119.5795457, 38.5484439], [-119.5792503, 38.5482325], [-119.5789553, 38.5479807], [-119.5786771, 38.5475131], [-119.5784517, 38.5472182], [-119.5782084, 38.5469949], [-119.5779309, 38.5467841], [-119.5776705, 38.5465152], [-119.5774447, 38.5462114], [-119.577254, 38.5460031], [-119.5769933, 38.5456036], [-119.5769411, 38.5454805], [-119.5767261, 38.5451697]], [[-119.5767261, 38.5451697], [-119.5761598, 38.5445117], [-119.5760385, 38.544301], [-119.5758474, 38.5440837], [-119.5753613, 38.543601], [-119.5749442, 38.5430258], [-119.5747886, 38.5427554], [-119.5746664, 38.5425943], [-119.5745455, 38.5422888], [-119.5745454, 38.5421402], [-119.5746493, 38.5417334], [-119.5747535, 38.5414707], [-119.5747709, 38.5411964], [-119.574736, 38.5409792], [-119.5746842, 38.540847], [-119.5745799, 38.5406728], [-119.574493, 38.5405712], [-119.5743369, 38.5405351], [-119.574233, 38.5405501], [-119.5740416, 38.5406121], [-119.5737989, 38.5407851], [-119.5734858, 38.5411588], [-119.5733815, 38.5412549], [-119.573243, 38.5413499], [-119.5730348, 38.5414473], [-119.5728093, 38.5415759], [-119.5726527, 38.5416119], [-119.572427, 38.5416998], [-119.5718022, 38.5417851], [-119.5715066, 38.5417584], [-119.5713161, 38.5417574], [-119.5711948, 38.5417132], [-119.5710381, 38.5417222], [-119.5706391, 38.5416699], [-119.5703439, 38.5415172], [-119.5702565, 38.5413344], [-119.5701874, 38.5409945], [-119.5701178, 38.5407673], [-119.5700657, 38.5401892], [-119.5698751, 38.539571], [-119.5695627, 38.5388592], [-119.5692843, 38.5384862], [-119.5690241, 38.5382624], [-119.5682947, 38.5378175], [-119.5680863, 38.5376448], [-119.5679479, 38.5374966], [-119.5678783, 38.5373324], [-119.5678613, 38.5371472], [-119.5678957, 38.5369231], [-119.5678956, 38.5366528], [-119.5680345, 38.5359181], [-119.5680173, 38.5356474], [-119.5679301, 38.5353251], [-119.5676175, 38.5346943], [-119.5674965, 38.5345105], [-119.567323, 38.5342262], [-119.5672879, 38.5341035], [-119.5672013, 38.5339208], [-119.5671315, 38.533626], [-119.5672882, 38.532982], [-119.5673055, 38.5323339], [-119.5672709, 38.5319771], [-119.5671667, 38.5316361], [-119.5671437, 38.5316011]], [[-119.5671437, 38.5316011], [-119.5666981, 38.5309243], [-119.5665415, 38.5306585], [-119.5664545, 38.5304397], [-119.5664196, 38.5302405], [-119.5664373, 38.5299437], [-119.5665066, 38.5296935], [-119.5665411, 38.5294333], [-119.5665586, 38.5288257], [-119.5664201, 38.5279388], [-119.5662636, 38.5272541], [-119.5662632, 38.5269432], [-119.5662808, 38.5267861], [-119.5664025, 38.5260195], [-119.5663327, 38.5258733], [-119.566246, 38.5258302], [-119.5661769, 38.5258372], [-119.5660202, 38.5259362], [-119.5649269, 38.5264986], [-119.5646661, 38.5265405], [-119.5638851, 38.5266122], [-119.5633466, 38.5265873], [-119.5630516, 38.5265336], [-119.5625484, 38.5264919], [-119.5615931, 38.5261439], [-119.561368, 38.5260382], [-119.5609166, 38.5257502], [-119.560517, 38.5254411], [-119.5603607, 38.5252474], [-119.5601873, 38.524918], [-119.5600306, 38.5245351], [-119.5599266, 38.5243563], [-119.5597704, 38.524023], [-119.5597183, 38.5238682], [-119.5596837, 38.523678], [-119.5597182, 38.5234358], [-119.5597012, 38.523129], [-119.5594231, 38.5226344], [-119.5593886, 38.5225163], [-119.5593362, 38.5224292], [-119.5592323, 38.5219756], [-119.5591277, 38.5217339], [-119.5594581, 38.5209689], [-119.5595097, 38.5206371], [-119.5594058, 38.5200665], [-119.5592145, 38.5194482], [-119.5584685, 38.5184264], [-119.5582255, 38.518158], [-119.557982, 38.5178085], [-119.5578432, 38.5175927], [-119.5577392, 38.5173239], [-119.5575307, 38.5170971], [-119.5572008, 38.5168036], [-119.5564373, 38.5160109], [-119.5559159, 38.5155091], [-119.5557598, 38.5152838], [-119.5556905, 38.5150385], [-119.555673, 38.5147722], [-119.5556904, 38.5143629], [-119.5560205, 38.5134538], [-119.556298, 38.513043], [-119.5566626, 38.5124006], [-119.5574268, 38.511297], [-119.5575829, 38.5109413], [-119.5577042, 38.5107242], [-119.5579302, 38.5101633], [-119.5580515, 38.5097389], [-119.5580343, 38.5091979], [-119.5578256, 38.5082685], [-119.5577914, 38.5079071], [-119.5577915, 38.5072269], [-119.5577215, 38.5067249], [-119.5577219, 38.5064456], [-119.5577561, 38.5060142], [-119.5578261, 38.5057776], [-119.5579303, 38.5056815], [-119.5581208, 38.505579], [-119.5582079, 38.5055096], [-119.5585208, 38.5054557], [-119.5586417, 38.5054592], [-119.5587288, 38.5054212], [-119.5588156, 38.5053292], [-119.5588676, 38.5052317], [-119.5588848, 38.5051556], [-119.5582603, 38.5046688], [-119.5580169, 38.5043914], [-119.5579649, 38.5042052], [-119.5578782, 38.504009], [-119.5578086, 38.5036511], [-119.55767, 38.5033723], [-119.5574263, 38.5030724], [-119.557201, 38.5029305], [-119.5570274, 38.5028894], [-119.5566282, 38.5025759], [-119.5565235, 38.5024286], [-119.5564541, 38.5022014], [-119.5564025, 38.5017945], [-119.556246, 38.5016818], [-119.5561245, 38.5016287], [-119.5559338, 38.5016456], [-119.555586, 38.5016984], [-119.5554125, 38.5017609], [-119.5552388, 38.5017962], [-119.5547704, 38.5018365], [-119.5542494, 38.5017491], [-119.5535204, 38.501561], [-119.5522872, 38.5012048], [-119.5518881, 38.5012201], [-119.5512632, 38.5012827], [-119.5509159, 38.5012635], [-119.550742, 38.5011683], [-119.550499, 38.5010666], [-119.5502737, 38.5008752], [-119.5501866, 38.5008546], [-119.5500131, 38.5007684], [-119.5498739, 38.5007283], [-119.5497005, 38.5006376], [-119.549596, 38.5005445], [-119.5489884, 38.5001707], [-119.5489364, 38.5000745], [-119.5487458, 38.4999112], [-119.5484155, 38.4998069], [-119.5481033, 38.4996806], [-119.5477211, 38.4995522], [-119.5474005, 38.4995022], [-119.5471655, 38.4994998], [-119.5470702, 38.4995015], [-119.546775, 38.4995468], [-119.5465231, 38.4994944], [-119.5461589, 38.49938], [-119.5458379, 38.4993796], [-119.5455425, 38.4993979], [-119.5452821, 38.4994533], [-119.5449693, 38.4994756], [-119.5446656, 38.4994756], [-119.544423, 38.4995269], [-119.5436413, 38.4998102], [-119.5434245, 38.4998668], [-119.5431288, 38.499876], [-119.5429118, 38.4998156], [-119.5427908, 38.4996499], [-119.5428428, 38.4994307], [-119.542825, 38.4991599], [-119.542773, 38.4989422], [-119.5427561, 38.498757], [-119.5427733, 38.4985459], [-119.5428774, 38.4983192], [-119.5430944, 38.4980824], [-119.5439103, 38.4973498], [-119.544101, 38.4971076], [-119.5441799, 38.4968668], [-119.5442489, 38.4962608], [-119.5442402, 38.4960128], [-119.5441536, 38.4956183], [-119.5436416, 38.4938781], [-119.5436498, 38.4937072], [-119.5437278, 38.4933492], [-119.5440058, 38.4926907], [-119.5443271, 38.4922183], [-119.5447527, 38.4916904], [-119.5449523, 38.4913989], [-119.5450994, 38.4911376], [-119.5454384, 38.4903863], [-119.545464, 38.4900448], [-119.5454033, 38.489489], [-119.5453344, 38.4891762], [-119.5450126, 38.4880091], [-119.5450218, 38.4876671], [-119.544946, 38.487434]], [[-119.544946, 38.487434], [-119.5448482, 38.4864593], [-119.5447526, 38.4861502], [-119.5446572, 38.4859131], [-119.5445009, 38.4856473], [-119.5443876, 38.4855313], [-119.5433547, 38.4843027], [-119.5431898, 38.4840365], [-119.5429989, 38.4834724], [-119.5427641, 38.4824521], [-119.542582, 38.4821539], [-119.5424518, 38.4819879], [-119.5422873, 38.4816542], [-119.5422435, 38.4814773], [-119.5422354, 38.4813328], [-119.5422699, 38.4810456], [-119.5423736, 38.4807469], [-119.5426083, 38.4803799], [-119.5427821, 38.4800698], [-119.5429207, 38.4796145], [-119.5431728, 38.4789688], [-119.5431897, 38.4788703], [-119.5433118, 38.478581], [-119.5434414, 38.4783867], [-119.5436329, 38.4782752], [-119.5438498, 38.4781871], [-119.544709, 38.4780007], [-119.5448999, 38.4779028], [-119.5450392, 38.4776862], [-119.5452385, 38.477111], [-119.545308, 38.4763925], [-119.5453599, 38.4760562], [-119.545447, 38.4758065], [-119.545681, 38.4747909], [-119.545985, 38.4741693], [-119.5462283, 38.4739062], [-119.5465234, 38.4736356], [-119.5468621, 38.4734115], [-119.5470703, 38.473341], [-119.5473653, 38.4732056], [-119.5476694, 38.473093], [-119.5479386, 38.4730379], [-119.5482682, 38.4729124], [-119.5485892, 38.4727598], [-119.5491361, 38.4724651], [-119.5497871, 38.4720609], [-119.5502736, 38.471832], [-119.5505162, 38.4718211], [-119.5508377, 38.471763], [-119.551011, 38.4717187], [-119.5513762, 38.4715537], [-119.5524695, 38.4713337], [-119.5527216, 38.4713051], [-119.5529645, 38.4711997], [-119.5537113, 38.4709919], [-119.5539979, 38.4708833], [-119.5545795, 38.4705356], [-119.5547008, 38.4704401], [-119.5549175, 38.4703564], [-119.5551955, 38.4702655], [-119.5553866, 38.4702215], [-119.5556558, 38.470225], [-119.5559331, 38.4702061], [-119.5560899, 38.4701612], [-119.5561852, 38.4700243], [-119.5562893, 38.469613], [-119.5563583, 38.4694574], [-119.5566191, 38.4686588], [-119.556906, 38.4680952], [-119.5575219, 38.4670863], [-119.5578517, 38.4663844], [-119.5579818, 38.4659828], [-119.5580338, 38.4657186], [-119.5579823, 38.4649964], [-119.5579908, 38.4641994], [-119.5580255, 38.4638175], [-119.5580864, 38.4634996], [-119.5581558, 38.4632629], [-119.5581906, 38.4623495], [-119.5582595, 38.4620903], [-119.5584248, 38.4617033], [-119.5587373, 38.4610503], [-119.5588501, 38.4607564], [-119.5588847, 38.4604962], [-119.558911, 38.4602583], [-119.558885, 38.4600502], [-119.558833, 38.4598055], [-119.5587024, 38.4595089], [-119.5586591, 38.45935], [-119.5587981, 38.458719], [-119.5587718, 38.4582318], [-119.5587285, 38.4578476], [-119.5586505, 38.4575616], [-119.5585983, 38.4574835], [-119.5584506, 38.457398], [-119.5582947, 38.4573799], [-119.5579819, 38.4574834], [-119.5577044, 38.4575968], [-119.5575741, 38.4576245], [-119.5574435, 38.4575846], [-119.5574092, 38.4574484], [-119.5575048, 38.4572621], [-119.5576525, 38.4571358], [-119.557765, 38.457013], [-119.557843, 38.4568486], [-119.5578609, 38.456624], [-119.5578084, 38.4564332], [-119.5574267, 38.455877], [-119.5572619, 38.4554578], [-119.5571572, 38.4551304], [-119.5571054, 38.4548045], [-119.5571053, 38.4546559], [-119.5571484, 38.4543508], [-119.5573398, 38.4537619], [-119.5573741, 38.4534747], [-119.5573567, 38.4530598], [-119.5571836, 38.4523025], [-119.5569315, 38.4517185], [-119.5567929, 38.4513496], [-119.5567751, 38.4511824], [-119.5568099, 38.4510393], [-119.5570183, 38.4504959], [-119.5570707, 38.4503128], [-119.5571137, 38.4500258], [-119.557062, 38.4496685], [-119.5569665, 38.4492512], [-119.5568969, 38.4488033], [-119.5568364, 38.4485717], [-119.5566885, 38.448189], [-119.5563412, 38.4475437], [-119.5563153, 38.4474394], [-119.5563326, 38.4473183], [-119.5564196, 38.4471767], [-119.5565409, 38.4470632], [-119.5571049, 38.4467644], [-119.5572874, 38.4465717], [-119.5573921, 38.4463856], [-119.5577041, 38.4460569], [-119.5579036, 38.4459142], [-119.558555, 38.4455865], [-119.558963, 38.4451795], [-119.5591797, 38.4450643], [-119.5595097, 38.4449163], [-119.5597786, 38.4447081], [-119.5598832, 38.4444364], [-119.5599614, 38.4441639], [-119.559961, 38.4437495], [-119.559996, 38.4435253], [-119.5602219, 38.4432302], [-119.5603608, 38.4431397], [-119.5604731, 38.4431115], [-119.5607597, 38.4430028], [-119.5612722, 38.4427611], [-119.5613932, 38.4426565], [-119.561411, 38.4424318], [-119.5613418, 38.4421866], [-119.5610983, 38.4416479], [-119.5611069, 38.4414365], [-119.5611591, 38.4411947], [-119.5613239, 38.4406951], [-119.5616282, 38.4398663], [-119.5617231, 38.4397205], [-119.5618799, 38.439572], [-119.5621838, 38.4393962], [-119.5621919, 38.4391802], [-119.5622354, 38.4390328], [-119.5626434, 38.438689], [-119.5628259, 38.4385547], [-119.5630342, 38.4383582], [-119.5635119, 38.4377957], [-119.5637462, 38.4375953], [-119.5639805, 38.4374535], [-119.5645012, 38.4372076], [-119.5652912, 38.4367758], [-119.5654996, 38.4367009], [-119.5660813, 38.4364477], [-119.5663415, 38.4363202], [-119.5669063, 38.4360034], [-119.5675828, 38.4356855], [-119.567913, 38.4355466], [-119.5682428, 38.43543], [-119.5683991, 38.4354076], [-119.5687373, 38.4352824], [-119.5690157, 38.435223], [-119.5692236, 38.4352156], [-119.5694406, 38.4351544], [-119.5696493, 38.435129], [-119.5698227, 38.43508], [-119.5699965, 38.434977], [-119.5700743, 38.4349072], [-119.5701441, 38.4347651], [-119.5701527, 38.4347023], [-119.5700658, 38.4346187], [-119.5696059, 38.4345197], [-119.5691283, 38.434312], [-119.5689459, 38.434203], [-119.5687987, 38.434077], [-119.5687293, 38.4338949], [-119.5687461, 38.4337062], [-119.5688421, 38.4334478], [-119.5689632, 38.4330369], [-119.5689808, 38.4326051], [-119.568911, 38.4322516], [-119.5688244, 38.432114], [-119.5685727, 38.4316111], [-119.5684161, 38.4311831], [-119.5682948, 38.4303012], [-119.5682774, 38.4298818], [-119.5682084, 38.4295105], [-119.568147, 38.429387], [-119.5680261, 38.4291898], [-119.5678263, 38.4289948], [-119.5672533, 38.4286537], [-119.5668974, 38.428418], [-119.5661421, 38.4278013], [-119.5659946, 38.4276213], [-119.5659422, 38.4274892], [-119.5659335, 38.4272502], [-119.5661334, 38.4266435], [-119.5662112, 38.4263304], [-119.5663066, 38.4260539], [-119.5666106, 38.4255133], [-119.5667061, 38.4251603], [-119.5667583, 38.4247834], [-119.5667668, 38.4245135], [-119.5666973, 38.4242142], [-119.5664635, 38.4238334], [-119.5661765, 38.4232574], [-119.5660468, 38.4228528], [-119.5660028, 38.4226353], [-119.5659335, 38.4224351], [-119.5658558, 38.4223067], [-119.565734, 38.4221455], [-119.5655517, 38.42196], [-119.5651958, 38.4217513], [-119.564918, 38.4216801], [-119.56471, 38.4215839], [-119.5637984, 38.421395], [-119.5635118, 38.4213145], [-119.5630952, 38.4211492], [-119.5626177, 38.4209099], [-119.5623399, 38.4208206], [-119.5621487, 38.420734], [-119.561906, 38.4206773], [-119.5614805, 38.4204576], [-119.5613938, 38.4203695], [-119.5613069, 38.4200742], [-119.561333, 38.4198722], [-119.561663, 38.4192514], [-119.5618362, 38.41886], [-119.5618882, 38.4185462], [-119.5619143, 38.4182677], [-119.5618887, 38.4172265], [-119.5619057, 38.4166415], [-119.5621055, 38.4157195], [-119.5621315, 38.4153508], [-119.5620704, 38.414723], [-119.5620794, 38.4140972], [-119.5620532, 38.4137136], [-119.5620013, 38.4133606], [-119.5617582, 38.4123311], [-119.5617758, 38.411656], [-119.5619404, 38.4108139], [-119.5620793, 38.4103586], [-119.5621401, 38.410027], [-119.5622533, 38.4097692], [-119.562409, 38.409472], [-119.5626436, 38.4092176], [-119.5629474, 38.4089382], [-119.5632423, 38.4086947], [-119.5635291, 38.4085319], [-119.5637549, 38.4083584], [-119.56405, 38.4081733], [-119.5647443, 38.4078064], [-119.5649791, 38.4076061], [-119.565213, 38.4073832], [-119.565847, 38.4065955], [-119.566298, 38.4061088], [-119.5665589, 38.4058732], [-119.5667111, 38.4057024], [-119.5668015, 38.405601], [-119.5670967, 38.405335], [-119.5676782, 38.4049016], [-119.5682774, 38.4046084], [-119.5690936, 38.4043259], [-119.5705605, 38.4035852], [-119.5714461, 38.4032553], [-119.5718018, 38.4031486], [-119.5720314, 38.403124], [-119.5727914, 38.4030425], [-119.5733821, 38.4028975], [-119.573694, 38.4028527], [-119.5740067, 38.4027762], [-119.5745362, 38.4026251], [-119.5748575, 38.4025488], [-119.5754391, 38.4023541], [-119.5760205, 38.402209], [-119.5779482, 38.401842], [-119.578269, 38.4017298], [-119.5785901, 38.4016445], [-119.5789724, 38.4015025], [-119.5794326, 38.4012728], [-119.5797537, 38.401156], [-119.5800923, 38.4009678], [-119.5803696, 38.4008542], [-119.5806391, 38.4006775], [-119.5809863, 38.400521], [-119.5812208, 38.4003746], [-119.5814895, 38.4002608], [-119.5816461, 38.4001708], [-119.5818025, 38.4000088], [-119.5820456, 38.3998762], [-119.5822449, 38.3997333], [-119.5828352, 38.3994443], [-119.5830874, 38.39924], [-119.5833124, 38.3989717], [-119.5834258, 38.3986779], [-119.5834605, 38.3983365], [-119.5835385, 38.3979108], [-119.5834867, 38.3975084], [-119.5833649, 38.3970545], [-119.5833735, 38.3968566], [-119.583504, 38.3966847], [-119.5836776, 38.3966132], [-119.5841895, 38.3967723], [-119.5844155, 38.3968059], [-119.5846582, 38.3967409], [-119.5849189, 38.3967215], [-119.5851618, 38.3967421], [-119.5860208, 38.3968842], [-119.5867157, 38.3970171], [-119.5869583, 38.3970917], [-119.5872972, 38.3971421], [-119.5877745, 38.3972641], [-119.5898324, 38.3979276], [-119.5907435, 38.3981795], [-119.5912728, 38.3984561], [-119.5917506, 38.3986411], [-119.592662, 38.3991766], [-119.5929141, 38.3992786], [-119.5934954, 38.3996829], [-119.5939209, 38.4000511], [-119.5941552, 38.4001975], [-119.5943982, 38.4002947], [-119.5945976, 38.400314], [-119.5948668, 38.4003714], [-119.5951883, 38.4004754], [-119.5954924, 38.4005967], [-119.5959088, 38.4009152], [-119.5962302, 38.4012488], [-119.5967334, 38.4021734], [-119.5970373, 38.4026641], [-119.5972194, 38.4029172], [-119.5973844, 38.4030886], [-119.5975408, 38.4033229], [-119.5977146, 38.4034946], [-119.5979575, 38.4036998], [-119.5984523, 38.4039664], [-119.5988077, 38.404184], [-119.599048, 38.4043048], [-119.5991118, 38.4043369], [-119.5994416, 38.4044907], [-119.6002665, 38.4047984], [-119.6010479, 38.40524], [-119.6013254, 38.4053336], [-119.6015597, 38.4054936], [-119.6019596, 38.4056493], [-119.6021329, 38.4056319], [-119.6023061, 38.4055378], [-119.6025066, 38.4053544], [-119.6026885, 38.4049678], [-119.6029057, 38.4045777], [-119.6030532, 38.4041631], [-119.6031224, 38.4035119], [-119.6031918, 38.4032211], [-119.6034435, 38.402769], [-119.6035825, 38.4025794], [-119.6037739, 38.4023597], [-119.604251, 38.4020718], [-119.6046415, 38.4019074], [-119.6050145, 38.4018102], [-119.6055008, 38.4017251], [-119.6058225, 38.4016849], [-119.6065254, 38.4015117], [-119.60676, 38.4013743], [-119.6075582, 38.4007083], [-119.6079056, 38.4005787], [-119.6086436, 38.4004334], [-119.6089906, 38.4003894], [-119.6091903, 38.4003726], [-119.609772, 38.4003715], [-119.609902, 38.4003302], [-119.6101539, 38.4002069], [-119.6103707, 38.400069], [-119.6107012, 38.3997498], [-119.6112129, 38.3994402], [-119.6114213, 38.3992526], [-119.6116207, 38.3991503], [-119.6118293, 38.3991113], [-119.6119855, 38.3991203], [-119.6125502, 38.3993484], [-119.612689, 38.399438], [-119.6128276, 38.3994735], [-119.6129669, 38.399419], [-119.6131317, 38.3992886], [-119.6132962, 38.3991987], [-119.6134703, 38.3991317], [-119.6137393, 38.399072], [-119.6140954, 38.3990462], [-119.6143643, 38.399063], [-119.6147986, 38.3991251], [-119.6151888, 38.3991364], [-119.6155191, 38.3990783], [-119.6161002, 38.3988925], [-119.6165172, 38.3986342], [-119.6167513, 38.3984023], [-119.6170727, 38.3981548], [-119.6173417, 38.3979554], [-119.6176804, 38.3977489], [-119.6183571, 38.3972595], [-119.6186263, 38.3970106], [-119.6191905, 38.396635], [-119.6195469, 38.396357], [-119.6201719, 38.3958255], [-119.62084, 38.3953222], [-119.6210833, 38.395104], [-119.6216215, 38.3943944], [-119.6219426, 38.3940613], [-119.6220297, 38.3937891], [-119.6220033, 38.3936487], [-119.6214909, 38.3930528], [-119.6210922, 38.3924288], [-119.6207356, 38.3916977], [-119.6206144, 38.3914285], [-119.6205449, 38.3912148], [-119.6204494, 38.3908247], [-119.6203888, 38.3900977], [-119.6204149, 38.3897696], [-119.6204672, 38.3895235], [-119.620467, 38.3892037], [-119.620519, 38.3885926], [-119.6204148, 38.3882202], [-119.620311, 38.387992], [-119.6202063, 38.3878448], [-119.6199978, 38.3876496], [-119.6197725, 38.387544], [-119.6194946, 38.3873197], [-119.6192512, 38.3870785], [-119.6190864, 38.3868711], [-119.6189387, 38.3866461], [-119.6188697, 38.3864234], [-119.6188519, 38.3860985], [-119.6190171, 38.3856393], [-119.6190518, 38.3854466], [-119.6189481, 38.3847725], [-119.6186786, 38.3841702], [-119.6186091, 38.383988], [-119.6185745, 38.3837933], [-119.6187912, 38.3832726], [-119.6188697, 38.3829866], [-119.6189039, 38.3826812], [-119.6189044, 38.3825011], [-119.6187998, 38.3821828], [-119.6186528, 38.3818542], [-119.6185313, 38.3816209], [-119.6183056, 38.3813081], [-119.6177411, 38.3810036], [-119.616769, 38.3807097], [-119.6164475, 38.3806735], [-119.6160918, 38.3806136], [-119.6155967, 38.3805092], [-119.6153536, 38.3804301], [-119.6151197, 38.3803107], [-119.6147983, 38.3801753], [-119.614677, 38.3801088], [-119.6145728, 38.3800111], [-119.6146162, 38.3797106], [-119.6147634, 38.3792374], [-119.6149372, 38.3784857], [-119.6149894, 38.3781809], [-119.6150153, 38.3778258], [-119.6149633, 38.3774684], [-119.614668, 38.3765771], [-119.6140344, 38.3753336], [-119.6138954, 38.3751539], [-119.6133571, 38.3746114], [-119.6130708, 38.3743869], [-119.6127933, 38.3741266], [-119.6125583, 38.3739666], [-119.6120896, 38.3737098], [-119.6115864, 38.3733214], [-119.6110651, 38.3728424], [-119.6103188, 38.3720686], [-119.6101104, 38.3717833], [-119.6099452, 38.3714451], [-119.609824, 38.3711174], [-119.6090512, 38.3694103], [-119.6088087, 38.3689393], [-119.6086521, 38.3687997], [-119.6080446, 38.3684217], [-119.6074977, 38.3683248], [-119.607324, 38.3682793], [-119.6071586, 38.3682205], [-119.6069771, 38.3680981], [-119.6068466, 38.3679817], [-119.6067424, 38.367839], [-119.6067074, 38.3674867], [-119.6067251, 38.3670909], [-119.6067855, 38.3667953], [-119.6069157, 38.3666099], [-119.6071592, 38.3665268], [-119.608027, 38.3663673], [-119.6087388, 38.3663023], [-119.6094076, 38.3662676], [-119.610024, 38.3662089], [-119.611187, 38.3660218], [-119.6123586, 38.3659251], [-119.6129838, 38.3659522], [-119.6141992, 38.3658387], [-119.614798, 38.3656488], [-119.615362, 38.3654399], [-119.6159785, 38.3651784], [-119.6172371, 38.3647193], [-119.6182447, 38.3641043], [-119.6197896, 38.3630903], [-119.6203452, 38.3627055], [-119.6208837, 38.3623832], [-119.6213867, 38.3621319], [-119.6225938, 38.3617028], [-119.6230449, 38.3614726], [-119.6243126, 38.3605408], [-119.6254318, 38.3598297], [-119.6260054, 38.3594138], [-119.6265437, 38.3592177], [-119.6269944, 38.3591676], [-119.6274115, 38.3590715], [-119.6277323, 38.358905], [-119.6282798, 38.3584658], [-119.6286268, 38.358138], [-119.6291391, 38.3575762], [-119.6293909, 38.3572681], [-119.6296252, 38.3570407], [-119.6300505, 38.3565214], [-119.6302674, 38.3562078], [-119.6307366, 38.3557754], [-119.6310226, 38.3555449], [-119.6313786, 38.3552848], [-119.6316478, 38.3551215], [-119.6319083, 38.3549802], [-119.6322639, 38.3548509], [-119.6326112, 38.3547482], [-119.6333661, 38.3545673], [-119.6340177, 38.3544553], [-119.6345996, 38.3542738], [-119.635575, 38.3539075]], [[-119.635575, 38.3539075], [-119.6354327, 38.3537167], [-119.6352326, 38.3536209], [-119.6348337, 38.3534653], [-119.6346775, 38.3532852], [-119.634564, 38.3530657], [-119.6344082, 38.3528179], [-119.6342172, 38.3526053], [-119.6339918, 38.3524231], [-119.6337223, 38.3522352], [-119.6331318, 38.3519705], [-119.6325764, 38.3518284], [-119.6322901, 38.3517886], [-119.6319773, 38.3517661], [-119.6316387, 38.3517744], [-119.6314306, 38.3517594], [-119.6309704, 38.3516155], [-119.6306494, 38.3514757], [-119.6303458, 38.3512688], [-119.6298075, 38.3508659], [-119.6294686, 38.3506625], [-119.6288787, 38.3502671], [-119.6284967, 38.3498688], [-119.6283575, 38.34968], [-119.6279669, 38.3489887], [-119.6278541, 38.3487422], [-119.6278193, 38.3485655], [-119.6278193, 38.3483808], [-119.6278542, 38.3481701], [-119.6279581, 38.3479794], [-119.6289563, 38.3469766], [-119.629391, 38.3466513], [-119.6296335, 38.3465411], [-119.6297726, 38.3463965], [-119.6298938, 38.3462018], [-119.6300326, 38.3460302], [-119.6304321, 38.3456318], [-119.6306754, 38.3454271], [-119.6312488, 38.3449976], [-119.6315176, 38.3447666], [-119.6317258, 38.3445473], [-119.6318643, 38.3438712], [-119.6318735, 38.3433985], [-119.6320293, 38.342921], [-119.6322027, 38.3426017], [-119.6323248, 38.3422359], [-119.6323508, 38.3420294], [-119.6323593, 38.3414306], [-119.6324985, 38.3410022], [-119.6324983, 38.3408534], [-119.6324464, 38.3406313], [-119.6322814, 38.3404283], [-119.6319951, 38.3401724], [-119.6318732, 38.3400112], [-119.6317085, 38.3396462], [-119.6316999, 38.3394612], [-119.6317951, 38.3388288], [-119.6317428, 38.3380435], [-119.6317691, 38.3378146], [-119.6317519, 38.3374312], [-119.6317087, 38.3371912], [-119.6316911, 38.3369385], [-119.6315957, 38.3363907], [-119.6315952, 38.3361384], [-119.6315697, 38.3359034], [-119.6316215, 38.3357112], [-119.6317341, 38.3350389], [-119.631882, 38.3347323], [-119.6320298, 38.3345203], [-119.6323421, 38.334151], [-119.6327591, 38.3335458], [-119.6328802, 38.333261], [-119.6329846, 38.3330928], [-119.6334789, 38.332544], [-119.6336964, 38.3320458], [-119.6339045, 38.3318266], [-119.6341475, 38.3317209], [-119.6343042, 38.3316263], [-119.6344689, 38.3314779], [-119.634547, 38.3313675], [-119.634608, 38.3312522], [-119.6346597, 38.3310645], [-119.6348331, 38.3303127], [-119.6348079, 38.329794], [-119.6348335, 38.3295965], [-119.6349461, 38.32937], [-119.6350019, 38.3292982], [-119.6350761, 38.3292027], [-119.6352588, 38.3290232], [-119.6353563, 38.32898], [-119.6356406, 38.3288539], [-119.635997, 38.328657], [-119.6361078, 38.3285835], [-119.6362573, 38.3284843], [-119.6366823, 38.3281362], [-119.6368736, 38.3280336], [-119.6370474, 38.3279845], [-119.6373074, 38.327974], [-119.6376545, 38.3280244], [-119.637776, 38.3280099], [-119.6378633, 38.3279764], [-119.638306, 38.3276332], [-119.6386272, 38.3274712], [-119.639174, 38.3271175], [-119.6392829, 38.3269341]], [[-119.6392829, 38.3269341], [-119.6518396, 38.3356801], [-119.6632376, 38.3436072], [-119.6695049, 38.3482633], [-119.7000441, 38.3651853], [-119.6936638, 38.3789736], [-119.6955909, 38.3915188], [-119.6992546, 38.40882], [-119.7035081, 38.4139622], [-119.7128834, 38.4186897], [-119.7490222, 38.4170367], [-119.7510102, 38.4160829], [-119.7571038, 38.4131033], [-119.7643437, 38.4095199], [-119.7726776, 38.4058897], [-119.7754729, 38.4062055], [-119.7767399, 38.4072899], [-119.7830944, 38.4038702], [-119.7974176, 38.4022046], [-119.8014279, 38.3978817], [-119.8076263, 38.3908122], [-119.8111853, 38.3866839], [-119.824363, 38.3835917], [-119.8325922, 38.3819949], [-119.840075, 38.3778998], [-119.8458738, 38.374912], [-119.8512559, 38.3719848], [-119.8518814, 38.3717629], [-119.8526281, 38.3716477], [-119.8626627, 38.3695027], [-119.8650935, 38.3690453], [-119.8739481, 38.3650433], [-119.8746771, 38.3645717], [-119.876014, 38.3638191], [-119.879712, 38.3614266], [-119.8799633, 38.3598387], [-119.8803633, 38.3595025], [-119.9428568, 38.3942156], [-119.9575151, 38.402334], [-119.9687426, 38.4085517], [-120.0010183, 38.4265057], [-120.0179024, 38.4358565]], [[-120.0179024, 38.4358565], [-120.0287539, 38.4418491], [-120.0534419, 38.4555553], [-120.0537027, 38.4555528], [-120.0545271, 38.4550374], [-120.0551003, 38.4550655], [-120.0556381, 38.4540789], [-120.0558639, 38.4538279], [-120.0562636, 38.453491], [-120.0565062, 38.453389], [-120.0570015, 38.4532213], [-120.0576349, 38.4529805], [-120.0585033, 38.452723], [-120.0589891, 38.4526631], [-120.0594322, 38.4525616], [-120.0599352, 38.4524121], [-120.0604215, 38.4521271], [-120.0607427, 38.4519594], [-120.0614286, 38.4517333], [-120.0618451, 38.4516178], [-120.0621144, 38.4514713], [-120.0623139, 38.451179], [-120.0627224, 38.4509775], [-120.0630176, 38.4507282], [-120.0633381, 38.4507677], [-120.0641021, 38.450913], [-120.0643713, 38.4507351], [-120.0647358, 38.4505415], [-120.0648834, 38.4503111], [-120.0653523, 38.4494804], [-120.0654043, 38.4491348], [-120.0656476, 38.4489968], [-120.0657863, 38.4488606], [-120.0661506, 38.4484237], [-120.0666718, 38.4481441], [-120.0669237, 38.4481819], [-120.0680606, 38.4482059], [-120.0685642, 38.4481464], [-120.0707604, 38.4479491], [-120.0710124, 38.4478789], [-120.0712382, 38.4477855], [-120.0718806, 38.4474457], [-120.0722103, 38.4472962], [-120.0725836, 38.4471839], [-120.0725663, 38.48037], [-120.0725143, 38.5098748]], [[-120.0725143, 38.5098748], [-120.072497, 38.5183613], [-120.0724962, 38.5494484], [-120.0724179, 38.5773082], [-120.0724087, 38.6067461], [-120.0723656, 38.624908], [-120.0724344, 38.6249096], [-120.0724166, 38.6656765], [-120.0724775, 38.6846967], [-120.0724544, 38.6999817], [-120.0728209, 38.7002799], [-120.0729626, 38.7006935], [-120.0730304, 38.7013331], [-120.0731167, 38.7014581], [-120.0731105, 38.7019871], [-120.0729072, 38.7021506], [-120.0728024, 38.7021506], [-120.0724512, 38.7021458], [-120.0724465, 38.7026844]], [[-119.9649472, 38.7759029], [-120.0010159, 38.7513933], [-120.0033073, 38.749907], [-120.0356182, 38.7278579], [-120.0479704, 38.7193957], [-120.0621295, 38.7096943], [-120.0705282, 38.7039961], [-120.0724465, 38.7026844]], [[-119.9000343, 38.9240793], [-119.8995896, 38.9233962], [-119.8993987, 38.9231975], [-119.8991207, 38.9230909], [-119.8987564, 38.9230678], [-119.8985304, 38.9230933], [-119.8982527, 38.923095], [-119.8980098, 38.9230659]], [[-119.8980098, 38.9230659], [-119.8977495, 38.9229014], [-119.8976173, 38.9227635], [-119.8975413, 38.9226842], [-119.8974544, 38.9225287], [-119.8973672, 38.9222786], [-119.8973325, 38.9220344], [-119.8972635, 38.9217803], [-119.897124, 38.9215919], [-119.8968815, 38.9214009], [-119.8962909, 38.9210293], [-119.8959264, 38.9208259], [-119.8955615, 38.920663], [-119.8951279, 38.9204442], [-119.8942768, 38.9202098], [-119.8930796, 38.9196015], [-119.8927422, 38.9193523]], [[-119.8927422, 38.9193523], [-119.892662, 38.919293], [-119.8924195, 38.9190027], [-119.892072, 38.9184124], [-119.8918985, 38.9183086], [-119.8915682, 38.9181648], [-119.8912216, 38.9181645], [-119.890822, 38.9182394], [-119.8904576, 38.9183964], [-119.8901624, 38.9185868], [-119.8896414, 38.9188656], [-119.8894507, 38.9189416], [-119.8892946, 38.9189689], [-119.8891905, 38.9189256], [-119.8890858, 38.9185985], [-119.8890515, 38.9184129], [-119.8889992, 38.918389], [-119.8887905, 38.9183969], [-119.888513, 38.9185291], [-119.8883568, 38.918624], [-119.8878706, 38.918485], [-119.8876276, 38.9182758], [-119.8873152, 38.9180512], [-119.8871592, 38.9177633], [-119.8870547, 38.9170849], [-119.8868985, 38.9168013], [-119.8866556, 38.9164886]], [[-119.8866556, 38.9164886], [-119.8864994, 38.9161556], [-119.8863251, 38.9158897], [-119.8860647, 38.9151845], [-119.8858742, 38.9145172], [-119.8858219, 38.9142141], [-119.885822, 38.9139618], [-119.8859786, 38.9131192], [-119.8859439, 38.912875], [-119.8855961, 38.9124063], [-119.8854924, 38.9120927], [-119.8854576, 38.911817], [-119.885301, 38.9115921], [-119.8849885, 38.911372], [-119.8847453, 38.9111672], [-119.8845201, 38.9108099], [-119.8841904, 38.9101931], [-119.8839993, 38.9097691], [-119.8839294, 38.9094564]], [[-119.8839294, 38.9094564], [-119.8838431, 38.9089089], [-119.8836001, 38.9082043], [-119.8832175, 38.9078067], [-119.8832003, 38.9075271], [-119.8832351, 38.9069288], [-119.8833216, 38.9062374], [-119.8833221, 38.9050889], [-119.8833049, 38.9048721], [-119.8832179, 38.9046535], [-119.8831307, 38.9045071], [-119.8826102, 38.9041329], [-119.8823847, 38.9039195], [-119.8821758, 38.9037879], [-119.8820372, 38.9035635], [-119.8821415, 38.9030393], [-119.8820548, 38.9028162], [-119.8818638, 38.9025993], [-119.8815508, 38.9024919], [-119.8813081, 38.9024403], [-119.8810994, 38.9022861], [-119.8808565, 38.9019914], [-119.88077, 38.9018269], [-119.8806827, 38.9015498], [-119.8806484, 38.9012966], [-119.8805264, 38.9010546], [-119.8803708, 38.9008432], [-119.880214, 38.9005733], [-119.8801277, 38.9002556], [-119.8800232, 38.9000277], [-119.8798324, 38.8997252], [-119.8797456, 38.8994887], [-119.8797283, 38.8993711], [-119.8800928, 38.8990475], [-119.8803702, 38.8988477], [-119.8805615, 38.8986411], [-119.8807524, 38.8983805], [-119.8809433, 38.8978045], [-119.8811173, 38.8974848], [-119.8812731, 38.8972503], [-119.8814645, 38.8969131], [-119.8817073, 38.8967304], [-119.8820893, 38.8964974], [-119.8824189, 38.8963575], [-119.8827663, 38.8961236], [-119.8829575, 38.896052], [-119.8832179, 38.8960276], [-119.8835824, 38.8959156], [-119.8838082, 38.8958271], [-119.8839816, 38.8955839], [-119.8840337, 38.8953332], [-119.8841898, 38.8947787], [-119.8843636, 38.8945266], [-119.8845549, 38.8943065], [-119.8845548, 38.8942569], [-119.8844154, 38.894118], [-119.88419, 38.894049], [-119.8838603, 38.8937788], [-119.8832869, 38.8934483], [-119.8829224, 38.8931187], [-119.8824711, 38.8926652], [-119.8822629, 38.8923984], [-119.8820545, 38.8921901], [-119.8817944, 38.8918949], [-119.8815165, 38.8916758], [-119.8812385, 38.8915061], [-119.8810994, 38.8913131], [-119.8809781, 38.8911208], [-119.8809436, 38.8908901], [-119.8809432, 38.8906515], [-119.8808737, 38.8902803], [-119.8806829, 38.8898653], [-119.8807006, 38.8894287], [-119.8806486, 38.8892021], [-119.8804052, 38.8888217], [-119.8803535, 38.8886041], [-119.880405, 38.8883983], [-119.880318, 38.8881798], [-119.8801275, 38.8878909], [-119.8796416, 38.8873734], [-119.8795021, 38.8871039], [-119.8794678, 38.8868507], [-119.879537, 38.8865372], [-119.8799715, 38.8858597], [-119.8802662, 38.8856288], [-119.8805443, 38.885348], [-119.8809434, 38.8850209], [-119.881221, 38.884767], [-119.8822108, 38.8835007], [-119.8823498, 38.8829549], [-119.8824195, 38.8824658], [-119.8824015, 38.8821365], [-119.8824886, 38.8818416], [-119.8826102, 38.8815654], [-119.882801, 38.8813047], [-119.8830616, 38.8810774], [-119.8832871, 38.8809123], [-119.8835301, 38.8807747], [-119.8842247, 38.8804554], [-119.8848148, 38.8803046], [-119.8857354, 38.8801581], [-119.8860305, 38.8800803], [-119.8864122, 38.8799509], [-119.8866899, 38.8799087], [-119.8870198, 38.8798274], [-119.8873149, 38.8798308], [-119.8879576, 38.8796633], [-119.8886868, 38.8793268], [-119.8887908, 38.8792215], [-119.8888252, 38.8791278], [-119.8886347, 38.8789877], [-119.8881656, 38.87884], [-119.8876971, 38.8787328], [-119.887367, 38.8786069], [-119.8871242, 38.8784744], [-119.8867769, 38.8783119], [-119.8863602, 38.8780395], [-119.8861171, 38.8778168], [-119.8858045, 38.8775877], [-119.885127, 38.8768535], [-119.8849021, 38.8766763], [-119.8845198, 38.8764273], [-119.8834088, 38.8760192], [-119.883183, 38.8759141], [-119.882992, 38.8757828], [-119.8827317, 38.8756903], [-119.8824536, 38.8756784], [-119.8820716, 38.8757493], [-119.88169, 38.875712], [-119.881395, 38.8756546], [-119.8807523, 38.8754798], [-119.8800581, 38.8753936], [-119.8797105, 38.8754699], [-119.8795196, 38.8754693], [-119.8789296, 38.8753228], [-119.878721, 38.8751866], [-119.8786687, 38.8750816], [-119.8786172, 38.8749091], [-119.8788338, 38.8743698], [-119.8786865, 38.873884], [-119.8774624, 38.8721169], [-119.8773926, 38.8719349], [-119.8771756, 38.8714966], [-119.8771408, 38.8712705], [-119.8771762, 38.8710552], [-119.8771845, 38.8707987], [-119.8773237, 38.8702034], [-119.8773493, 38.8698302], [-119.877367, 38.8690018], [-119.8773933, 38.8687952], [-119.8774363, 38.8685847], [-119.8775319, 38.8683261], [-119.8776623, 38.8680637], [-119.8778098, 38.8678695], [-119.8779836, 38.8677346], [-119.8783131, 38.8675767], [-119.8785646, 38.8674078]], [[-119.8785646, 38.8674078], [-119.8788342, 38.8670907], [-119.8790077, 38.8668431], [-119.8794419, 38.8661069], [-119.8796842, 38.8656359], [-119.8799366, 38.8647417], [-119.8802055, 38.864339], [-119.880414, 38.8641509], [-119.8805963, 38.8640342], [-119.880874, 38.8639065], [-119.8810825, 38.863768], [-119.8817593, 38.8631779], [-119.881985, 38.8630083], [-119.8824708, 38.8626834], [-119.8828965, 38.8625507], [-119.8831398, 38.8625032], [-119.8834085, 38.8625013], [-119.8838513, 38.8624546], [-119.8840945, 38.8624114], [-119.8844934, 38.8622465], [-119.8846848, 38.8621029], [-119.8848848, 38.8619101], [-119.8850405, 38.8616756], [-119.8852575, 38.8614381], [-119.8855356, 38.8612203], [-119.8858919, 38.860903], [-119.8863861, 38.8604637], [-119.8864659, 38.8604179]], [[-119.8864659, 38.8604179], [-119.8870028, 38.8601108], [-119.8872544, 38.8599058], [-119.887558, 38.8597653]], [[-119.887558, 38.8597653], [-119.8882441, 38.8595538], [-119.8894937, 38.8590061], [-119.8900585, 38.8586878], [-119.8905357, 38.8583446], [-119.8909693, 38.8579464], [-119.8911867, 38.8576999], [-119.8914907, 38.8574332], [-119.8919597, 38.8571663], [-119.8926793, 38.8568793], [-119.893713, 38.8566366], [-119.8942854, 38.8565572], [-119.8946762, 38.8565631], [-119.8951012, 38.8565925], [-119.8956221, 38.8566515], [-119.8967165, 38.8566895], [-119.8977055, 38.8567969]], [[-119.8977055, 38.8567969], [-119.8987565, 38.8570051], [-119.899416, 38.8571893], [-119.899678, 38.8573027], [-119.9002147, 38.8575348], [-119.9007875, 38.8571311], [-119.9014126, 38.856864], [-119.9021854, 38.8566277], [-119.9030442, 38.8562542], [-119.9034523, 38.8561568], [-119.9043293, 38.8560766], [-119.9046153, 38.8561067], [-119.9048588, 38.8560861], [-119.9053969, 38.8559517], [-119.9057699, 38.8557184], [-119.9059613, 38.8554892], [-119.9061785, 38.8551481], [-119.9066558, 38.8545211], [-119.9068465, 38.8542243], [-119.9069599, 38.8539167], [-119.9069595, 38.8532454], [-119.9068814, 38.8528875], [-119.9068467, 38.85231], [-119.9068551, 38.8519499], [-119.9069593, 38.8513896], [-119.9070029, 38.8499178], [-119.9071418, 38.8495565], [-119.9072978, 38.8492455], [-119.9073416, 38.8488997], [-119.907376, 38.8481574], [-119.9074458, 38.8478079], [-119.9075408, 38.8475581], [-119.9076798, 38.8473276], [-119.9082357, 38.8466442], [-119.9084873, 38.8462364]], [[-119.9084873, 38.8462364], [-119.908626, 38.8457446], [-119.9086871, 38.8453318], [-119.9087044, 38.8449493], [-119.9086263, 38.8439923], [-119.9084963, 38.8436871], [-119.9083488, 38.8434039], [-119.9080015, 38.8428271], [-119.9079057, 38.8425452], [-119.9079148, 38.8422527], [-119.9079838, 38.841642], [-119.9079491, 38.8409969], [-119.9079143, 38.8407212]], [[-119.9079143, 38.8407212], [-119.9079836, 38.8400158], [-119.9080705, 38.8397703], [-119.9081575, 38.8393762], [-119.9081922, 38.8390394], [-119.9081659, 38.8387504], [-119.9082613, 38.8379105], [-119.9082701, 38.8373071], [-119.9082268, 38.8371124], [-119.9082355, 38.8367116]], [[-119.9082355, 38.8367116], [-119.9081577, 38.8362818]], [[-119.9081577, 38.8362818], [-119.9082268, 38.835815], [-119.9081837, 38.8353319], [-119.9083223, 38.8347094], [-119.9084177, 38.8344822], [-119.9085914, 38.8341625], [-119.9088346, 38.8339167], [-119.9091475, 38.8336908], [-119.9095206, 38.8333854]], [[-119.9095206, 38.8333854], [-119.9101971, 38.8330069], [-119.9110826, 38.8325709], [-119.9113608, 38.8324476], [-119.911838, 38.8323342], [-119.912828, 38.832063], [-119.9139387, 38.8319122], [-119.9145728, 38.8318479], [-119.9153017, 38.831687], [-119.916387, 38.8315446], [-119.9171417, 38.8313032], [-119.9176627, 38.8311909], [-119.919746, 38.8308225], [-119.920189, 38.8307666], [-119.9205621, 38.8307448], [-119.9210571, 38.8306814], [-119.9215517, 38.8305639], [-119.9220464, 38.8302616]], [[-119.9220464, 38.8302616], [-119.9223507, 38.8300309], [-119.9226367, 38.8297771], [-119.9227931, 38.8295515], [-119.9229062, 38.8292662], [-119.9229406, 38.8287041], [-119.9228848, 38.8281205]], [[-119.9228848, 38.8281205], [-119.9228711, 38.827977], [-119.9228709, 38.8276301], [-119.9228889, 38.8273154], [-119.9229406, 38.8269338], [-119.9230099, 38.8267104], [-119.9231576, 38.82639], [-119.9233229, 38.8261466], [-119.9237653, 38.8257348], [-119.9238609, 38.8255212], [-119.923948, 38.8251856], [-119.9239654, 38.8250014], [-119.9239475, 38.8246135], [-119.9237826, 38.8243298], [-119.9233142, 38.823858], [-119.9225677, 38.823478], [-119.9218467, 38.8228553], [-119.9213002, 38.8222418], [-119.9211871, 38.8220452], [-119.9211261, 38.8218048], [-119.921187, 38.8215451], [-119.9213435, 38.821288], [-119.9216384, 38.8210751], [-119.9221682, 38.8207377], [-119.9224635, 38.8205833], [-119.9233138, 38.8202588], [-119.9240172, 38.8199216], [-119.9244162, 38.8196482], [-119.9250068, 38.8192855], [-119.9253801, 38.8190746], [-119.9256754, 38.8189518], [-119.926083, 38.8186787], [-119.9263699, 38.8184026], [-119.9269602, 38.8176973], [-119.9272027, 38.8174785], [-119.9275068, 38.8173378], [-119.9278711, 38.8170997], [-119.9284964, 38.8167693], [-119.9292256, 38.8162975], [-119.9300415, 38.8158326], [-119.930589, 38.8153865]], [[-119.930589, 38.8153865], [-119.9314392, 38.8146936], [-119.9316648, 38.8143662], [-119.9317343, 38.8140887], [-119.9317776, 38.8138016], [-119.9317779, 38.8135583], [-119.9317586, 38.8134057]], [[-119.9317586, 38.8134057], [-119.9317516, 38.8133505], [-119.9316998, 38.8132139], [-119.9316649, 38.8130419], [-119.9315521, 38.8128001], [-119.9315174, 38.8124704], [-119.931543, 38.8123088], [-119.9316993, 38.8121553], [-119.9321339, 38.8119732], [-119.9332099, 38.8111996], [-119.9337915, 38.8105077], [-119.9339913, 38.8102111], [-119.9342606, 38.8099569], [-119.9345559, 38.8097845], [-119.9347991, 38.8095836], [-119.9352674, 38.8091366], [-119.9354584, 38.8088082], [-119.9356149, 38.8084654], [-119.9357709, 38.8082173], [-119.9358667, 38.8079991], [-119.9360485, 38.8077516], [-119.9361354, 38.8075557], [-119.9362918, 38.80733], [-119.9364742, 38.8071547], [-119.9367, 38.8069579], [-119.9370991, 38.8066936], [-119.9380369, 38.8062724], [-119.9384271, 38.8059988], [-119.9388268, 38.8056218], [-119.9393734, 38.8051902], [-119.9395989, 38.8049844], [-119.9398679, 38.8047843], [-119.9402674, 38.8044119], [-119.9404326, 38.804218], [-119.9405022, 38.8040397], [-119.9405801, 38.8037489], [-119.9409796, 38.8034756], [-119.9411793, 38.8033817], [-119.9419083, 38.8031621], [-119.9423681, 38.8028768], [-119.9424813, 38.8027537], [-119.9426551, 38.8024429], [-119.9430715, 38.8015889], [-119.9432014, 38.801277], [-119.9432539, 38.8008234], [-119.9431579, 38.8003254], [-119.9431412, 38.8001447], [-119.9431847, 38.7999027], [-119.9435492, 38.7993041], [-119.9435923, 38.799071], [-119.9436615, 38.7984106], [-119.9436534, 38.7981807], [-119.9435664, 38.7979577], [-119.9435313, 38.7978036], [-119.9435142, 38.7973121], [-119.943549, 38.797187]], [[-119.943549, 38.797187], [-119.9436357, 38.7970451], [-119.9437749, 38.7969361], [-119.9438699, 38.796835], [-119.943896, 38.796714], [-119.9438874, 38.7966102], [-119.943792, 38.7965176], [-119.9436274, 38.7964322], [-119.9428021, 38.7963475], [-119.9422471, 38.79627], [-119.9416563, 38.7961373], [-119.9415188, 38.7960924]], [[-119.9415188, 38.7960924], [-119.9411618, 38.7959757], [-119.9407453, 38.7957891], [-119.9401808, 38.7953779], [-119.9398248, 38.7948867], [-119.9397207, 38.7946632], [-119.939669, 38.7944771], [-119.9396863, 38.7940721], [-119.9397206, 38.7938072]], [[-119.9397206, 38.7938072], [-119.9399555, 38.7933809], [-119.9400939, 38.7932404], [-119.9402329, 38.7931495], [-119.9405627, 38.7928428]], [[-119.9405627, 38.7928428], [-119.9410492, 38.7925718], [-119.9414138, 38.7922885], [-119.941639, 38.7920197], [-119.9418155, 38.7917305]], [[-119.9418155, 38.7917305], [-119.9421342, 38.7912083], [-119.9423942, 38.7908458]], [[-119.9423942, 38.7908458], [-119.9426632, 38.7903123], [-119.942915, 38.7895891], [-119.9430801, 38.7893097], [-119.9433055, 38.7890002], [-119.9436356, 38.7887026], [-119.9439745, 38.7885493], [-119.9449643, 38.7881653], [-119.9452418, 38.7879834], [-119.9454488, 38.7877753]], [[-119.9454488, 38.7877753], [-119.945605, 38.7875998], [-119.9457811, 38.7874187]], [[-119.9457811, 38.7874187], [-119.9462917, 38.7869163], [-119.9464886, 38.7867446], [-119.9465525, 38.7866888], [-119.9470127, 38.7862054], [-119.9471601, 38.7859705], [-119.9472791, 38.785738], [-119.9473249, 38.7856505], [-119.9475071, 38.7854255], [-119.9477676, 38.785036], [-119.9478634, 38.7848314], [-119.9479243, 38.784567], [-119.9479065, 38.7836025], [-119.9478804, 38.7833046], [-119.9479068, 38.7828188], [-119.9478719, 38.7824395], [-119.947811, 38.7821316], [-119.9478284, 38.7819789], [-119.9478809, 38.7818271], [-119.9479498, 38.7817118], [-119.9480975, 38.7815895], [-119.9489654, 38.7814095], [-119.9497295, 38.7812223], [-119.9501465, 38.7811431], [-119.9506669, 38.7809676], [-119.9511188, 38.7808802], [-119.9515268, 38.7808233], [-119.9526467, 38.7804066], [-119.9530284, 38.7801779], [-119.9533842, 38.779998], [-119.9537752, 38.7797334], [-119.9541047, 38.7794627], [-119.9543564, 38.7792801], [-119.9546341, 38.7790396], [-119.9551376, 38.7787374], [-119.9555805, 38.7785733], [-119.9560142, 38.778472], [-119.9571518, 38.778416], [-119.9576115, 38.7783785], [-119.9580894, 38.7783909], [-119.9584279, 38.7784312], [-119.9587492, 38.7785028], [-119.9588876, 38.7785649], [-119.9590271, 38.7785821], [-119.9594958, 38.7785222], [-119.960468, 38.7776511], [-119.9609195, 38.7773161], [-119.9617093, 38.7768907], [-119.9621433, 38.7767173], [-119.9626812, 38.7765511], [-119.9637059, 38.7762534], [-119.9638791, 38.7762218]], [[-119.9638791, 38.7762218], [-119.9649472, 38.7759029]], [[-119.9044161, 38.9334164], [-119.9044505, 38.933138], [-119.9044506, 38.9329353], [-119.9044334, 38.9326691], [-119.904364, 38.9324601], [-119.9043814, 38.9318615], [-119.9043639, 38.931469], [-119.904399, 38.9312087], [-119.904607, 38.9307999], [-119.9047461, 38.9305693], [-119.9048327, 38.9303509], [-119.9048499, 38.9302207], [-119.9048504, 38.9295946], [-119.9049367, 38.9293356], [-119.9052672, 38.9288129], [-119.9053883, 38.9285007], [-119.9053882, 38.9283207], [-119.9053013, 38.9281787], [-119.9051624, 38.9280083], [-119.9049719, 38.9279132], [-119.9046417, 38.9277827], [-119.9042949, 38.9277195], [-119.903635, 38.9277109], [-119.9034094, 38.9276601], [-119.9032007, 38.9275193], [-119.9030101, 38.9273296], [-119.9027672, 38.9269626], [-119.9026104, 38.9266251], [-119.902437, 38.9260711], [-119.9023325, 38.9258882], [-119.9021936, 38.9257854], [-119.9019506, 38.9254906], [-119.9018297, 38.9252531], [-119.9017422, 38.9251427], [-119.9013781, 38.9248807], [-119.901152, 38.9247937], [-119.900944, 38.9247522], [-119.9007009, 38.9246736], [-119.9004753, 38.9245595], [-119.9002839, 38.9243878], [-119.900076, 38.9241434], [-119.9000343, 38.9240793]]]]}}]}