{
"type": "FeatureCollection",
"name": "cheeger_bottleneck",
"crs": { "type": "name", "properties": { "name": "urn:ogc:def:crs:OGC:1.3:CRS84" } },
"features": [
{ "type": "Feature", "properties": { "cell_id": 8, "ndvi": 0.27320719, "albedo": 0.19001558, "impervious": 0.39529312, "lst": 28.382092, "SVI": 0.0, "cheeger_side": "left", "cheeger_boundary": true, "cheeger_fiedler": -0.011087267124297041, "cheeger_rank": 152, "cooling_sink": false, "cooling_access_score": 0.0, "cooling_sink_resistance_proxy": 100.0, "cheeger_priority": 58.673538833527793, "cheeger_priority_class": "high", "cooling_access_class": "very_low", "low_cooling_access": true, "street_intervention_signal": 100.0 }, "geometry": { "type": "Polygon", "coordinates": [ [ [ -71.179017191901465, 42.299972072072045 ], [ -71.179017191901465, 42.30898108108105 ], [ -71.1912, 42.30898108108105 ], [ -71.1912, 42.299972072072045 ], [ -71.179017191901465, 42.299972072072045 ] ] ] } },
{ "type": "Feature", "properties": { "cell_id": 9, "ndvi": 0.34587497, "albedo": 0.1861944, "impervious": 0.40193474, "lst": 28.137453, "SVI": 0.0, "cheeger_side": "right", "cheeger_boundary": true, "cheeger_fiedler": 5.8930031237156563e-16, "cheeger_rank": 163, "cooling_sink": true, "cooling_access_score": 100.0, "cooling_sink_resistance_proxy": 0.0, "cheeger_priority": 21.418169250226534, "cheeger_priority_class": "moderate", "cooling_access_class": "good", "low_cooling_access": false, "street_intervention_signal": 21.418169250226534 }, "geometry": { "type": "Polygon", "coordinates": [ [ [ -71.179017191901465, 42.30898108108105 ], [ -71.179017191901465, 42.317990090090056 ], [ -71.1912, 42.317990090090056 ], [ -71.1912, 42.30898108108105 ], [ -71.179017191901465, 42.30898108108105 ] ] ] } },
{ "type": "Feature", "properties": { "cell_id": 27, "ndvi": 0.41496363, "albedo": 0.22260465, "impervious": 0.36404097, "lst": 27.122984, "SVI": 0.0, "cheeger_side": "left", "cheeger_boundary": true, "cheeger_fiedler": -0.014040594622974691, "cheeger_rank": 150, "cooling_sink": true, "cooling_access_score": 100.0, "cooling_sink_resistance_proxy": 0.0, "cheeger_priority": 26.593016847488521, "cheeger_priority_class": "moderate", "cooling_access_class": "good", "low_cooling_access": false, "street_intervention_signal": 26.593016847488521 }, "geometry": { "type": "Polygon", "coordinates": [ [ [ -71.166834383802936, 42.299972072072045 ], [ -71.166834383802936, 42.30898108108105 ], [ -71.179017191901465, 42.30898108108105 ], [ -71.179017191901465, 42.299972072072045 ], [ -71.166834383802936, 42.299972072072045 ] ] ] } },
{ "type": "Feature", "properties": { "cell_id": 28, "ndvi": 0.34749931, "albedo": 0.14130376, "impervious": 0.38871861, "lst": 27.396801, "SVI": 0.0, "cheeger_side": "right", "cheeger_boundary": true, "cheeger_fiedler": 7.3199331345827774e-16, "cheeger_rank": 165, "cooling_sink": false, "cooling_access_score": 0.0, "cooling_sink_resistance_proxy": 100.0, "cheeger_priority": 62.483166341317443, "cheeger_priority_class": "high", "cooling_access_class": "very_low", "low_cooling_access": true, "street_intervention_signal": 100.0 }, "geometry": { "type": "Polygon", "coordinates": [ [ [ -71.166834383802936, 42.30898108108105 ], [ -71.166834383802936, 42.317990090090056 ], [ -71.179017191901465, 42.317990090090056 ], [ -71.179017191901465, 42.30898108108105 ], [ -71.166834383802936, 42.30898108108105 ] ] ] } },
{ "type": "Feature", "properties": { "cell_id": 46, "ndvi": 0.47228599, "albedo": 0.17351295, "impervious": 0.28438488, "lst": 31.721025, "SVI": 0.0, "cheeger_side": "left", "cheeger_boundary": true, "cheeger_fiedler": -0.014054737363441622, "cheeger_rank": 148, "cooling_sink": true, "cooling_access_score": 100.0, "cooling_sink_resistance_proxy": 0.0, "cheeger_priority": 52.902347654898264, "cheeger_priority_class": "high", "cooling_access_class": "good", "low_cooling_access": false, "street_intervention_signal": 52.902347654898264 }, "geometry": { "type": "Polygon", "coordinates": [ [ [ -71.154651575704406, 42.299972072072045 ], [ -71.154651575704406, 42.30898108108105 ], [ -71.166834383802936, 42.30898108108105 ], [ -71.166834383802936, 42.299972072072045 ], [ -71.154651575704406, 42.299972072072045 ] ] ] } },
{ "type": "Feature", "properties": { "cell_id": 47, "ndvi": 0.34366015, "albedo": 0.16375874, "impervious": 0.39512965, "lst": 28.535828, "SVI": 0.0, "cheeger_side": "right", "cheeger_boundary": true, "cheeger_fiedler": 7.6952885907739592e-16, "cheeger_rank": 167, "cooling_sink": false, "cooling_access_score": 0.0, "cooling_sink_resistance_proxy": 100.0, "cheeger_priority": 66.827220832430228, "cheeger_priority_class": "high", "cooling_access_class": "very_low", "low_cooling_access": true, "street_intervention_signal": 100.0 }, "geometry": { "type": "Polygon", "coordinates": [ [ [ -71.154651575704406, 42.30898108108105 ], [ -71.154651575704406, 42.317990090090056 ], [ -71.166834383802936, 42.317990090090056 ], [ -71.166834383802936, 42.30898108108105 ], [ -71.154651575704406, 42.30898108108105 ] ] ] } },
{ "type": "Feature", "properties": { "cell_id": 65, "ndvi": 0.5124163, "albedo": 0.1523297, "impervious": 0.38655558, "lst": 29.612604, "SVI": 0.0, "cheeger_side": "left", "cheeger_boundary": true, "cheeger_fiedler": -0.01406680313103429, "cheeger_rank": 146, "cooling_sink": true, "cooling_access_score": 100.0, "cooling_sink_resistance_proxy": 0.0, "cheeger_priority": 39.409703856766185, "cheeger_priority_class": "moderate", "cooling_access_class": "good", "low_cooling_access": false, "street_intervention_signal": 39.409703856766185 }, "geometry": { "type": "Polygon", "coordinates": [ [ [ -71.142468767605877, 42.299972072072045 ], [ -71.142468767605877, 42.30898108108105 ], [ -71.154651575704406, 42.30898108108105 ], [ -71.154651575704406, 42.299972072072045 ], [ -71.142468767605877, 42.299972072072045 ] ] ] } },
{ "type": "Feature", "properties": { "cell_id": 66, "ndvi": 0.57101417, "albedo": 0.1620522, "impervious": 0.36526236, "lst": 30.80759, "SVI": 0.0, "cheeger_side": "right", "cheeger_boundary": true, "cheeger_fiedler": 8.0772633845136436e-16, "cheeger_rank": 168, "cooling_sink": true, "cooling_access_score": 100.0, "cooling_sink_resistance_proxy": 0.0, "cheeger_priority": 48.404667916758257, "cheeger_priority_class": "high", "cooling_access_class": "good", "low_cooling_access": false, "street_intervention_signal": 48.404667916758257 }, "geometry": { "type": "Polygon", "coordinates": [ [ [ -71.142468767605877, 42.30898108108105 ], [ -71.142468767605877, 42.317990090090056 ], [ -71.154651575704406, 42.317990090090056 ], [ -71.154651575704406, 42.30898108108105 ], [ -71.142468767605877, 42.30898108108105 ] ] ] } },
{ "type": "Feature", "properties": { "cell_id": 84, "ndvi": 0.5312717, "albedo": 0.16651757, "impervious": 0.30701655, "lst": 29.311268, "SVI": 0.0, "cheeger_side": "left", "cheeger_boundary": true, "cheeger_fiedler": -0.014076750788486381, "cheeger_rank": 144, "cooling_sink": true, "cooling_access_score": 100.0, "cooling_sink_resistance_proxy": 0.0, "cheeger_priority": 36.308129164035726, "cheeger_priority_class": "moderate", "cooling_access_class": "good", "low_cooling_access": false, "street_intervention_signal": 36.308129164035726 }, "geometry": { "type": "Polygon", "coordinates": [ [ [ -71.130285959507347, 42.299972072072045 ], [ -71.130285959507347, 42.30898108108105 ], [ -71.142468767605877, 42.30898108108105 ], [ -71.142468767605877, 42.299972072072045 ], [ -71.130285959507347, 42.299972072072045 ] ] ] } },
{ "type": "Feature", "properties": { "cell_id": 85, "ndvi": 0.48399222, "albedo": 0.19323961, "impervious": 0.39393157, "lst": 29.523764, "SVI": 0.0, "cheeger_side": "right", "cheeger_boundary": true, "cheeger_fiedler": 8.4444179793458588e-16, "cheeger_rank": 169, "cooling_sink": true, "cooling_access_score": 100.0, "cooling_sink_resistance_proxy": 0.0, "cheeger_priority": 39.611914391914773, "cheeger_priority_class": "moderate", "cooling_access_class": "good", "low_cooling_access": false, "street_intervention_signal": 39.611914391914773 }, "geometry": { "type": "Polygon", "coordinates": [ [ [ -71.130285959507347, 42.30898108108105 ], [ -71.130285959507347, 42.317990090090056 ], [ -71.142468767605877, 42.317990090090056 ], [ -71.142468767605877, 42.30898108108105 ], [ -71.130285959507347, 42.30898108108105 ] ] ] } },
{ "type": "Feature", "properties": { "cell_id": 103, "ndvi": 0.38310289, "albedo": 0.18234877, "impervious": 0.44144419, "lst": 28.388847, "SVI": 0.0, "cheeger_side": "left", "cheeger_boundary": true, "cheeger_fiedler": -0.014084538056555284, "cheeger_rank": 142, "cooling_sink": false, "cooling_access_score": 0.0, "cooling_sink_resistance_proxy": 100.0, "cheeger_priority": 64.823527188303686, "cheeger_priority_class": "high", "cooling_access_class": "very_low", "low_cooling_access": true, "street_intervention_signal": 100.0 }, "geometry": { "type": "Polygon", "coordinates": [ [ [ -71.118103151408818, 42.299972072072045 ], [ -71.118103151408818, 42.30898108108105 ], [ -71.130285959507347, 42.30898108108105 ], [ -71.130285959507347, 42.299972072072045 ], [ -71.118103151408818, 42.299972072072045 ] ] ] } },
{ "type": "Feature", "properties": { "cell_id": 104, "ndvi": 0.39054045, "albedo": 0.1527153, "impervious": 0.39979896, "lst": 26.959955, "SVI": 0.0, "cheeger_side": "right", "cheeger_boundary": true, "cheeger_fiedler": 7.5182009454576407e-16, "cheeger_rank": 166, "cooling_sink": false, "cooling_access_score": 0.0, "cooling_sink_resistance_proxy": 100.0, "cheeger_priority": 58.252869757840656, "cheeger_priority_class": "high", "cooling_access_class": "very_low", "low_cooling_access": true, "street_intervention_signal": 100.0 }, "geometry": { "type": "Polygon", "coordinates": [ [ [ -71.118103151408818, 42.30898108108105 ], [ -71.118103151408818, 42.317990090090056 ], [ -71.130285959507347, 42.317990090090056 ], [ -71.130285959507347, 42.30898108108105 ], [ -71.118103151408818, 42.30898108108105 ] ] ] } },
{ "type": "Feature", "properties": { "cell_id": 122, "ndvi": 0.29080752, "albedo": 0.21562219, "impervious": 0.44566607, "lst": 27.785048, "SVI": 0.0, "cheeger_side": "left", "cheeger_boundary": true, "cheeger_fiedler": -0.014090128051465671, "cheeger_rank": 140, "cooling_sink": false, "cooling_access_score": 0.0, "cooling_sink_resistance_proxy": 100.0, "cheeger_priority": 58.934129603127602, "cheeger_priority_class": "high", "cooling_access_class": "very_low", "low_cooling_access": true, "street_intervention_signal": 100.0 }, "geometry": { "type": "Polygon", "coordinates": [ [ [ -71.105920343310288, 42.299972072072045 ], [ -71.105920343310288, 42.30898108108105 ], [ -71.118103151408818, 42.30898108108105 ], [ -71.118103151408818, 42.299972072072045 ], [ -71.105920343310288, 42.299972072072045 ] ] ] } },
{ "type": "Feature", "properties": { "cell_id": 123, "ndvi": 0.32009748, "albedo": 0.25984409, "impervious": 0.70809519, "lst": 31.690104, "SVI": 0.0, "cheeger_side": "right", "cheeger_boundary": true, "cheeger_fiedler": 6.6512896440677188e-16, "cheeger_rank": 164, "cooling_sink": false, "cooling_access_score": 0.0, "cooling_sink_resistance_proxy": 100.0, "cheeger_priority": 87.140361849936625, "cheeger_priority_class": "critical", "cooling_access_class": "very_low", "low_cooling_access": true, "street_intervention_signal": 100.0 }, "geometry": { "type": "Polygon", "coordinates": [ [ [ -71.105920343310288, 42.30898108108105 ], [ -71.105920343310288, 42.317990090090056 ], [ -71.118103151408818, 42.317990090090056 ], [ -71.118103151408818, 42.30898108108105 ], [ -71.105920343310288, 42.30898108108105 ] ] ] } },
{ "type": "Feature", "properties": { "cell_id": 141, "ndvi": 0.4472124, "albedo": 0.21786763, "impervious": 0.43765756, "lst": 23.522993, "SVI": 0.0, "cheeger_side": "left", "cheeger_boundary": true, "cheeger_fiedler": -0.014093493188824181, "cheeger_rank": 138, "cooling_sink": true, "cooling_access_score": 100.0, "cooling_sink_resistance_proxy": 0.0, "cheeger_priority": 0.0, "cheeger_priority_class": "not_boundary", "cooling_access_class": "good", "low_cooling_access": false, "street_intervention_signal": 0.0 }, "geometry": { "type": "Polygon", "coordinates": [ [ [ -71.093737535211758, 42.299972072072045 ], [ -71.093737535211758, 42.30898108108105 ], [ -71.105920343310288, 42.30898108108105 ], [ -71.105920343310288, 42.299972072072045 ], [ -71.093737535211758, 42.299972072072045 ] ] ] } },
{ "type": "Feature", "properties": { "cell_id": 142, "ndvi": 0.34894234, "albedo": 0.17098835, "impervious": 0.40491444, "lst": 28.154247, "SVI": 0.0, "cheeger_side": "right", "cheeger_boundary": true, "cheeger_fiedler": 5.5258233347640851e-16, "cheeger_rank": 162, "cooling_sink": false, "cooling_access_score": 0.0, "cooling_sink_resistance_proxy": 100.0, "cheeger_priority": 64.214599208171833, "cheeger_priority_class": "high", "cooling_access_class": "very_low", "low_cooling_access": true, "street_intervention_signal": 100.0 }, "geometry": { "type": "Polygon", "coordinates": [ [ [ -71.093737535211758, 42.30898108108105 ], [ -71.093737535211758, 42.317990090090056 ], [ -71.105920343310288, 42.317990090090056 ], [ -71.105920343310288, 42.30898108108105 ], [ -71.093737535211758, 42.30898108108105 ] ] ] } },
{ "type": "Feature", "properties": { "cell_id": 143, "ndvi": 0.35995749, "albedo": 0.24372184, "impervious": 0.65113759, "lst": 34.039722, "SVI": 0.0, "cheeger_side": "right", "cheeger_boundary": true, "cheeger_fiedler": 0.014093493188825272, "cheeger_rank": 185, "cooling_sink": false, "cooling_access_score": 0.0, "cooling_sink_resistance_proxy": 100.0, "cheeger_priority": 100.0, "cheeger_priority_class": "critical", "cooling_access_class": "very_low", "low_cooling_access": true, "street_intervention_signal": 100.0 }, "geometry": { "type": "Polygon", "coordinates": [ [ [ -71.093737535211758, 42.317990090090056 ], [ -71.093737535211758, 42.326999099099062 ], [ -71.105920343310288, 42.326999099099062 ], [ -71.105920343310288, 42.317990090090056 ], [ -71.093737535211758, 42.317990090090056 ] ] ] } },
{ "type": "Feature", "properties": { "cell_id": 160, "ndvi": 0.50493169, "albedo": 0.15094119, "impervious": 0.38479283, "lst": 28.706562, "SVI": 0.0, "cheeger_side": "left", "cheeger_boundary": true, "cheeger_fiedler": -0.01409461675477248, "cheeger_rank": 136, "cooling_sink": true, "cooling_access_score": 100.0, "cooling_sink_resistance_proxy": 0.0, "cheeger_priority": 29.606965508636417, "cheeger_priority_class": "moderate", "cooling_access_class": "good", "low_cooling_access": false, "street_intervention_signal": 29.606965508636417 }, "geometry": { "type": "Polygon", "coordinates": [ [ [ -71.081554727113229, 42.299972072072045 ], [ -71.081554727113229, 42.30898108108105 ], [ -71.093737535211758, 42.30898108108105 ], [ -71.093737535211758, 42.299972072072045 ], [ -71.081554727113229, 42.299972072072045 ] ] ] } },
{ "type": "Feature", "properties": { "cell_id": 161, "ndvi": 0.40000653, "albedo": 0.22476794, "impervious": 0.38523048, "lst": 27.482061, "SVI": 0.0, "cheeger_side": "left", "cheeger_boundary": true, "cheeger_fiedler": 4.1678204120048716e-16, "cheeger_rank": 161, "cooling_sink": true, "cooling_access_score": 100.0, "cooling_sink_resistance_proxy": 0.0, "cheeger_priority": 23.584607087447331, "cheeger_priority_class": "moderate", "cooling_access_class": "good", "low_cooling_access": false, "street_intervention_signal": 23.584607087447331 }, "geometry": { "type": "Polygon", "coordinates": [ [ [ -71.081554727113229, 42.30898108108105 ], [ -71.081554727113229, 42.317990090090056 ], [ -71.093737535211758, 42.317990090090056 ], [ -71.093737535211758, 42.30898108108105 ], [ -71.081554727113229, 42.30898108108105 ] ] ] } },
{ "type": "Feature", "properties": { "cell_id": 162, "ndvi": 0.43865705, "albedo": 0.19748551, "impervious": 0.42528683, "lst": 27.804644, "SVI": 0.0, "cheeger_side": "right", "cheeger_boundary": true, "cheeger_fiedler": 0.014094616754773272, "cheeger_rank": 186, "cooling_sink": true, "cooling_access_score": 100.0, "cooling_sink_resistance_proxy": 0.0, "cheeger_priority": 28.165066493323842, "cheeger_priority_class": "moderate", "cooling_access_class": "good", "low_cooling_access": false, "street_intervention_signal": 28.165066493323842 }, "geometry": { "type": "Polygon", "coordinates": [ [ [ -71.081554727113229, 42.317990090090056 ], [ -71.081554727113229, 42.326999099099062 ], [ -71.093737535211758, 42.326999099099062 ], [ -71.093737535211758, 42.317990090090056 ], [ -71.081554727113229, 42.317990090090056 ] ] ] } },
{ "type": "Feature", "properties": { "cell_id": 180, "ndvi": 0.36506793, "albedo": 0.15282479, "impervious": 0.37537816, "lst": 27.898466, "SVI": 0.0, "cheeger_side": "left", "cheeger_boundary": true, "cheeger_fiedler": 3.017815457651838e-16, "cheeger_rank": 160, "cooling_sink": false, "cooling_access_score": 0.0, "cooling_sink_resistance_proxy": 100.0, "cheeger_priority": 60.834611792177242, "cheeger_priority_class": "high", "cooling_access_class": "very_low", "low_cooling_access": true, "street_intervention_signal": 100.0 }, "geometry": { "type": "Polygon", "coordinates": [ [ [ -71.069371919014699, 42.30898108108105 ], [ -71.069371919014699, 42.317990090090056 ], [ -71.081554727113229, 42.317990090090056 ], [ -71.081554727113229, 42.30898108108105 ], [ -71.069371919014699, 42.30898108108105 ] ] ] } },
{ "type": "Feature", "properties": { "cell_id": 181, "ndvi": 0.38842523, "albedo": 0.1428027, "impervious": 0.42578521, "lst": 28.570318, "SVI": 0.0, "cheeger_side": "right", "cheeger_boundary": true, "cheeger_fiedler": 0.014093493188825036, "cheeger_rank": 184, "cooling_sink": false, "cooling_access_score": 0.0, "cooling_sink_resistance_proxy": 100.0, "cheeger_priority": 66.184940377446594, "cheeger_priority_class": "high", "cooling_access_class": "very_low", "low_cooling_access": true, "street_intervention_signal": 100.0 }, "geometry": { "type": "Polygon", "coordinates": [ [ [ -71.069371919014699, 42.317990090090056 ], [ -71.069371919014699, 42.326999099099062 ], [ -71.081554727113229, 42.326999099099062 ], [ -71.081554727113229, 42.317990090090056 ], [ -71.069371919014699, 42.317990090090056 ] ] ] } },
{ "type": "Feature", "properties": { "cell_id": 199, "ndvi": 0.30172759, "albedo": 0.15571427, "impervious": 0.45242307, "lst": 28.255665, "SVI": 0.0, "cheeger_side": "left", "cheeger_boundary": true, "cheeger_fiedler": 1.5453584035056858e-16, "cheeger_rank": 159, "cooling_sink": false, "cooling_access_score": 0.0, "cooling_sink_resistance_proxy": 100.0, "cheeger_priority": 62.945955455962952, "cheeger_priority_class": "high", "cooling_access_class": "very_low", "low_cooling_access": true, "street_intervention_signal": 100.0 }, "geometry": { "type": "Polygon", "coordinates": [ [ [ -71.05718911091617, 42.30898108108105 ], [ -71.05718911091617, 42.317990090090056 ], [ -71.069371919014699, 42.317990090090056 ], [ -71.069371919014699, 42.30898108108105 ], [ -71.05718911091617, 42.30898108108105 ] ] ] } },
{ "type": "Feature", "properties": { "cell_id": 200, "ndvi": 0.3934902, "albedo": 0.19241238, "impervious": 0.44120198, "lst": 27.798901, "SVI": 0.0, "cheeger_side": "right", "cheeger_boundary": true, "cheeger_fiedler": 0.014090128051466559, "cheeger_rank": 182, "cooling_sink": false, "cooling_access_score": 0.0, "cooling_sink_resistance_proxy": 100.0, "cheeger_priority": 60.358242182533516, "cheeger_priority_class": "high", "cooling_access_class": "very_low", "low_cooling_access": true, "street_intervention_signal": 100.0 }, "geometry": { "type": "Polygon", "coordinates": [ [ [ -71.05718911091617, 42.317990090090056 ], [ -71.05718911091617, 42.326999099099062 ], [ -71.069371919014699, 42.326999099099062 ], [ -71.069371919014699, 42.317990090090056 ], [ -71.05718911091617, 42.317990090090056 ] ] ] } },
{ "type": "Feature", "properties": { "cell_id": 218, "ndvi": 0.29363886, "albedo": 0.1427156, "impervious": 0.41931197, "lst": 28.259678, "SVI": 0.0, "cheeger_side": "left", "cheeger_boundary": true, "cheeger_fiedler": 5.3946650765536981e-18, "cheeger_rank": 158, "cooling_sink": false, "cooling_access_score": 0.0, "cooling_sink_resistance_proxy": 100.0, "cheeger_priority": 62.228565288579077, "cheeger_priority_class": "high", "cooling_access_class": "very_low", "low_cooling_access": true, "street_intervention_signal": 100.0 }, "geometry": { "type": "Polygon", "coordinates": [ [ [ -71.04500630281764, 42.30898108108105 ], [ -71.04500630281764, 42.317990090090056 ], [ -71.05718911091617, 42.317990090090056 ], [ -71.05718911091617, 42.30898108108105 ], [ -71.04500630281764, 42.30898108108105 ] ] ] } },
{ "type": "Feature", "properties": { "cell_id": 219, "ndvi": 0.4075743, "albedo": 0.15509628, "impervious": 0.43198207, "lst": 27.912014, "SVI": 0.0, "cheeger_side": "right", "cheeger_boundary": true, "cheeger_fiedler": 0.014084538056556089, "cheeger_rank": 180, "cooling_sink": true, "cooling_access_score": 100.0, "cooling_sink_resistance_proxy": 0.0, "cheeger_priority": 25.783804561787889, "cheeger_priority_class": "moderate", "cooling_access_class": "good", "low_cooling_access": false, "street_intervention_signal": 25.783804561787889 }, "geometry": { "type": "Polygon", "coordinates": [ [ [ -71.04500630281764, 42.317990090090056 ], [ -71.04500630281764, 42.326999099099062 ], [ -71.05718911091617, 42.326999099099062 ], [ -71.05718911091617, 42.317990090090056 ], [ -71.04500630281764, 42.317990090090056 ] ] ] } },
{ "type": "Feature", "properties": { "cell_id": 237, "ndvi": 0.302935, "albedo": 0.17056707, "impervious": 0.36376113, "lst": 27.799395, "SVI": 0.0, "cheeger_side": "left", "cheeger_boundary": true, "cheeger_fiedler": -1.4273511956682949e-16, "cheeger_rank": 157, "cooling_sink": false, "cooling_access_score": 0.0, "cooling_sink_resistance_proxy": 100.0, "cheeger_priority": 58.044028059138597, "cheeger_priority_class": "high", "cooling_access_class": "very_low", "low_cooling_access": true, "street_intervention_signal": 100.0 }, "geometry": { "type": "Polygon", "coordinates": [ [ [ -71.032823494719111, 42.30898108108105 ], [ -71.032823494719111, 42.317990090090056 ], [ -71.04500630281764, 42.317990090090056 ], [ -71.04500630281764, 42.30898108108105 ], [ -71.032823494719111, 42.30898108108105 ] ] ] } },
{ "type": "Feature", "properties": { "cell_id": 238, "ndvi": 0.29355338, "albedo": 0.18941925, "impervious": 0.43978852, "lst": 28.045929, "SVI": 0.0, "cheeger_side": "right", "cheeger_boundary": true, "cheeger_fiedler": 0.014076750788487056, "cheeger_rank": 178, "cooling_sink": false, "cooling_access_score": 0.0, "cooling_sink_resistance_proxy": 100.0, "cheeger_priority": 60.831285924023049, "cheeger_priority_class": "high", "cooling_access_class": "very_low", "low_cooling_access": true, "street_intervention_signal": 100.0 }, "geometry": { "type": "Polygon", "coordinates": [ [ [ -71.032823494719111, 42.317990090090056 ], [ -71.032823494719111, 42.326999099099062 ], [ -71.04500630281764, 42.326999099099062 ], [ -71.04500630281764, 42.317990090090056 ], [ -71.032823494719111, 42.317990090090056 ] ] ] } },
{ "type": "Feature", "properties": { "cell_id": 256, "ndvi": 0.68952554, "albedo": 0.14683801, "impervious": 0.20114197, "lst": 24.809855, "SVI": 0.0, "cheeger_side": "left", "cheeger_boundary": true, "cheeger_fiedler": -2.3090747044763774e-16, "cheeger_rank": 156, "cooling_sink": true, "cooling_access_score": 100.0, "cooling_sink_resistance_proxy": 0.0, "cheeger_priority": 3.0412361954772043, "cheeger_priority_class": "moderate", "cooling_access_class": "good", "low_cooling_access": false, "street_intervention_signal": 3.0412361954772043 }, "geometry": { "type": "Polygon", "coordinates": [ [ [ -71.020640686620581, 42.30898108108105 ], [ -71.020640686620581, 42.317990090090056 ], [ -71.032823494719111, 42.317990090090056 ], [ -71.032823494719111, 42.30898108108105 ], [ -71.020640686620581, 42.30898108108105 ] ] ] } },
{ "type": "Feature", "properties": { "cell_id": 257, "ndvi": 0.30006737, "albedo": 0.15382782, "impervious": 0.3814753, "lst": 27.701654, "SVI": 0.0, "cheeger_side": "right", "cheeger_boundary": true, "cheeger_fiedler": 0.014066803131034889, "cheeger_rank": 176, "cooling_sink": false, "cooling_access_score": 0.0, "cooling_sink_resistance_proxy": 100.0, "cheeger_priority": 57.783004403345927, "cheeger_priority_class": "high", "cooling_access_class": "very_low", "low_cooling_access": true, "street_intervention_signal": 100.0 }, "geometry": { "type": "Polygon", "coordinates": [ [ [ -71.020640686620581, 42.317990090090056 ], [ -71.020640686620581, 42.326999099099062 ], [ -71.032823494719111, 42.326999099099062 ], [ -71.032823494719111, 42.317990090090056 ], [ -71.020640686620581, 42.317990090090056 ] ] ] } },
{ "type": "Feature", "properties": { "cell_id": 275, "ndvi": 0.79116416, "albedo": 0.15071791, "impervious": 0.15832314, "lst": 24.135925, "SVI": 0.0, "cheeger_side": "left", "cheeger_boundary": true, "cheeger_fiedler": -3.5919432514227366e-16, "cheeger_rank": 155, "cooling_sink": true, "cooling_access_score": 100.0, "cooling_sink_resistance_proxy": 0.0, "cheeger_priority": 0.0, "cheeger_priority_class": "not_boundary", "cooling_access_class": "good", "low_cooling_access": false, "street_intervention_signal": 0.0 }, "geometry": { "type": "Polygon", "coordinates": [ [ [ -71.008457878522051, 42.30898108108105 ], [ -71.008457878522051, 42.317990090090056 ], [ -71.020640686620581, 42.317990090090056 ], [ -71.020640686620581, 42.30898108108105 ], [ -71.008457878522051, 42.30898108108105 ] ] ] } },
{ "type": "Feature", "properties": { "cell_id": 276, "ndvi": 0.64054215, "albedo": 0.10669968, "impervious": 0.17053153, "lst": 26.1786, "SVI": 0.0, "cheeger_side": "right", "cheeger_boundary": true, "cheeger_fiedler": 0.014054737363442047, "cheeger_rank": 174, "cooling_sink": true, "cooling_access_score": 100.0, "cooling_sink_resistance_proxy": 0.0, "cheeger_priority": 13.377443352008411, "cheeger_priority_class": "moderate", "cooling_access_class": "good", "low_cooling_access": false, "street_intervention_signal": 13.377443352008411 }, "geometry": { "type": "Polygon", "coordinates": [ [ [ -71.008457878522051, 42.317990090090056 ], [ -71.008457878522051, 42.326999099099062 ], [ -71.020640686620581, 42.326999099099062 ], [ -71.020640686620581, 42.317990090090056 ], [ -71.008457878522051, 42.317990090090056 ] ] ] } },
{ "type": "Feature", "properties": { "cell_id": 294, "ndvi": 0.3474575, "albedo": 0.19738911, "impervious": 0.41100258, "lst": 27.544317, "SVI": 0.0, "cheeger_side": "left", "cheeger_boundary": true, "cheeger_fiedler": -4.4653277499266978e-16, "cheeger_rank": 154, "cooling_sink": false, "cooling_access_score": 0.0, "cooling_sink_resistance_proxy": 100.0, "cheeger_priority": 61.613876767825751, "cheeger_priority_class": "high", "cooling_access_class": "very_low", "low_cooling_access": true, "street_intervention_signal": 100.0 }, "geometry": { "type": "Polygon", "coordinates": [ [ [ -70.996275070423522, 42.30898108108105 ], [ -70.996275070423522, 42.317990090090056 ], [ -71.008457878522051, 42.317990090090056 ], [ -71.008457878522051, 42.30898108108105 ], [ -70.996275070423522, 42.30898108108105 ] ] ] } },
{ "type": "Feature", "properties": { "cell_id": 295, "ndvi": 0.38570216, "albedo": 0.16544548, "impervious": 0.41399896, "lst": 27.939098, "SVI": 0.0, "cheeger_side": "right", "cheeger_boundary": true, "cheeger_fiedler": 0.014040594622974975, "cheeger_rank": 172, "cooling_sink": false, "cooling_access_score": 0.0, "cooling_sink_resistance_proxy": 100.0, "cheeger_priority": 64.453613741979581, "cheeger_priority_class": "high", "cooling_access_class": "very_low", "low_cooling_access": true, "street_intervention_signal": 100.0 }, "geometry": { "type": "Polygon", "coordinates": [ [ [ -70.996275070423522, 42.317990090090056 ], [ -70.996275070423522, 42.326999099099062 ], [ -71.008457878522051, 42.326999099099062 ], [ -71.008457878522051, 42.317990090090056 ], [ -70.996275070423522, 42.317990090090056 ] ] ] } },
{ "type": "Feature", "properties": { "cell_id": 313, "ndvi": 0.37089822, "albedo": 0.15603331, "impervious": 0.34478569, "lst": 28.489843, "SVI": 0.0, "cheeger_side": "left", "cheeger_boundary": true, "cheeger_fiedler": -4.8347180312725172e-16, "cheeger_rank": 153, "cooling_sink": false, "cooling_access_score": 0.0, "cooling_sink_resistance_proxy": 100.0, "cheeger_priority": 58.330538848278081, "cheeger_priority_class": "high", "cooling_access_class": "very_low", "low_cooling_access": true, "street_intervention_signal": 100.0 }, "geometry": { "type": "Polygon", "coordinates": [ [ [ -70.984092262324992, 42.30898108108105 ], [ -70.984092262324992, 42.317990090090056 ], [ -70.996275070423522, 42.317990090090056 ], [ -70.996275070423522, 42.30898108108105 ], [ -70.984092262324992, 42.30898108108105 ] ] ] } },
{ "type": "Feature", "properties": { "cell_id": 314, "ndvi": 0.28084815, "albedo": 0.20478341, "impervious": 0.42008325, "lst": 27.814178, "SVI": 0.0, "cheeger_side": "right", "cheeger_boundary": true, "cheeger_fiedler": 0.011087267124297161, "cheeger_rank": 170, "cooling_sink": true, "cooling_access_score": 100.0, "cooling_sink_resistance_proxy": 0.0, "cheeger_priority": 19.412547472927681, "cheeger_priority_class": "moderate", "cooling_access_class": "good", "low_cooling_access": false, "street_intervention_signal": 19.412547472927681 }, "geometry": { "type": "Polygon", "coordinates": [ [ [ -70.984092262324992, 42.317990090090056 ], [ -70.984092262324992, 42.326999099099062 ], [ -70.996275070423522, 42.326999099099062 ], [ -70.996275070423522, 42.317990090090056 ], [ -70.984092262324992, 42.317990090090056 ] ] ] } }
]
}
